Category	Business name	Address	City	State	Postal Code	Country	Phone	Fax	Website	Email	Map Link	Details Link
"  Body Massage Centres"	"Avalons Spa & Salon"	"Alka Avenue Township, Uslapur Railway Station, Uslapur, Bilaspur-Chhattisgarh - 495001, Club Royal Park"	"Chhattisgarh"	""	"495001"	"India"	"<span class="mobilesv icon-hgd"></span><span class="mobilesv icon-wxl"></span><span class="mobilesv icon-rqi"></span><span class="mobilesv icon-jie"></span><span class="mobilesv icon-wxl"></span><span class="mobilesv icon-vuk"></span><span class="mobilesv icon-jie"></span><span class="mobilesv icon-trs"></span><span class="mobilesv icon-dcb"></span><span class="mobilesv icon-nmg"></span><span class="mobilesv icon-hgd"></span>
		"	""	""	""	""	"https://www.justdial.com/Bilaspur-Chhattisgarh/Avalons-Spa-Salon-Club-Royal-Park-Uslapur/9999P7752-7752-190727122305-A3U5_BZDET?xid=QmlsYXNwdXItQ2hoYXR0aXNnYXJoIEJlYXV0eSBTcGFz"
"  Beauty Parlours"	"Aastha Beauty Clinic & Spa"	"Shree Krishna Complex A-1, Seepat Road, Sarkanda, Bilaspur-Chhattisgarh - 495001, Opp Devnandan Nagar F"	"Chhattisgarh"	""	"495001"	"India"	"<span class="mobilesv icon-hgd"></span><span class="mobilesv icon-wxl"></span><span class="mobilesv icon-rqi"></span><span class="mobilesv icon-jie"></span><span class="mobilesv icon-wxl"></span><span class="mobilesv icon-vuk"></span><span class="mobilesv icon-fec"></span><span class="mobilesv icon-fec"></span><span class="mobilesv icon-hgd"></span><span class="mobilesv icon-nmg"></span>0
		"	""	""	""	""	"https://www.justdial.com/Bilaspur-Chhattisgarh/Aastha-Beauty-Clinic-Spa-Opp-Devnandan-Nagar-F-Sarkanda/9999P7752-7752-131219203912-W8U5_BZDET?xid=QmlsYXNwdXItQ2hoYXR0aXNnYXJoIEJlYXV0eSBTcGFz"
"  Salons"	"Aqua Wellness Spa"	"2nd Floor, Mangla Chowk, Bilaspur H O, Bilaspur-Chhattisgarh - 495001, City Mall 36"	"Chhattisgarh"	""	"495001"	"India"	"<span class="mobilesv icon-hgd"></span><span class="mobilesv icon-wxl"></span><span class="mobilesv icon-rqi"></span><span class="mobilesv icon-jie"></span><span class="mobilesv icon-wxl"></span><span class="mobilesv icon-hgd"></span><span class="mobilesv icon-dcb"></span><span class="mobilesv icon-trs"></span><span class="mobilesv icon-dcb"></span><span class="mobilesv icon-rqi"></span><span class="mobilesv icon-jie"></span>
		"	""	""	""	""	"https://www.justdial.com/Bilaspur-Chhattisgarh/Aqua-Wellness-Spa-City-Mall-36-Bilaspur-H-O/9999P7752-7752-170521181724-E1J5_BZDET?xid=QmlsYXNwdXItQ2hoYXR0aXNnYXJoIEJlYXV0eSBTcGFz"
"  Body Massage Centres"	"New Waves The Retreat Spa"	"50-B, 2nd Floor,City 36 Mall, Mangla, Bilaspur-Chhattisgarh - 495001"	"Chhattisgarh"	""	"495001"	"India"	"<span class="mobilesv icon-hgd"></span><span class="mobilesv icon-wxl"></span><span class="mobilesv icon-rqi"></span><span class="mobilesv icon-jie"></span><span class="mobilesv icon-wxl"></span><span class="mobilesv icon-trs"></span><span class="mobilesv icon-rqi"></span>0<span class="mobilesv icon-dcb"></span><span class="mobilesv icon-nmg"></span><span class="mobilesv icon-dcb"></span>
		"	""	""	""	""	"https://www.justdial.com/Bilaspur-Chhattisgarh/New-Waves-The-Retreat-Spa-Mangla/9999P7752-7752-210810162457-D5B7_BZDET?xid=QmlsYXNwdXItQ2hoYXR0aXNnYXJoIEJlYXV0eSBTcGFz"
"  Salons"	"Beeba The Beauty Zone"	"Shop No 08 Ground Floor Real Heaven Plaza, Narmada Nagar Chowk, Narmada Nagar, Bilaspur-Chhattisgarh - 495001, Near Mangla Chowk"	"Chhattisgarh"	""	"495001"	"India"	"<span class="mobilesv icon-hgd"></span><span class="mobilesv icon-wxl"></span><span class="mobilesv icon-rqi"></span><span class="mobilesv icon-jie"></span><span class="mobilesv icon-wxl"></span><span class="mobilesv icon-vuk"></span><span class="mobilesv icon-jie"></span><span class="mobilesv icon-trs"></span>0<span class="mobilesv icon-fec"></span><span class="mobilesv icon-hgd"></span>
		"	""	""	""	""	"https://www.justdial.com/Bilaspur-Chhattisgarh/Beeba-The-Beauty-Zone-Near-Mangla-Chowk-Narmada-Nagar/9999P7752-7752-200219125700-C5U5_BZDET?xid=QmlsYXNwdXItQ2hoYXR0aXNnYXJoIEJlYXV0eSBTcGFz"
"  Salons"	"The Nail Bar"	"Twin Plaza, Link Road, Link Road, Bilaspur-Chhattisgarh - 495001, Twin Plaza 1 Floor"	"Chhattisgarh"	""	"495001"	"India"	"<span class="mobilesv icon-hgd"></span><span class="mobilesv icon-wxl"></span><span class="mobilesv icon-rqi"></span><span class="mobilesv icon-jie"></span><span class="mobilesv icon-wxl"></span><span class="mobilesv icon-vuk"></span><span class="mobilesv icon-fec"></span><span class="mobilesv icon-fec"></span><span class="mobilesv icon-wxl"></span>0<span class="mobilesv icon-trs"></span>
		"	""	""	""	""	"https://www.justdial.com/Bilaspur-Chhattisgarh/The-Nail-Bar-Twin-Plaza-1-Floor-Link-Road/9999P7752-7752-211027184748-P9L8_BZDET?xid=QmlsYXNwdXItQ2hoYXR0aXNnYXJoIEJlYXV0eSBTcGFz"
"  Beauty Spas"	"Stylo Salon"	"Bus Stand Road, Bilaspur-Chhattisgarh - 495001, Opposite Rajiv Plaza"	"Chhattisgarh"	""	"495001"	"India"	"<span class="mobilesv icon-hgd"></span><span class="mobilesv icon-wxl"></span><span class="mobilesv icon-rqi"></span><span class="mobilesv icon-jie"></span><span class="mobilesv icon-wxl"></span><span class="mobilesv icon-vuk"></span><span class="mobilesv icon-jie"></span><span class="mobilesv icon-trs"></span>00<span class="mobilesv icon-rqi"></span>
		"	""	""	""	""	"https://www.justdial.com/Bilaspur-Chhattisgarh/Stylo-Salon-Opposite-Rajiv-Plaza-Bus-Stand-Road/9999P7752-7752-200820172827-T1D7_BZDET?xid=QmlsYXNwdXItQ2hoYXR0aXNnYXJoIEJlYXV0eSBTcGFz"
"  Beauty Parlours"	"Bless The Unisex Family Sal.."	"Ground Floor Uma Shri Parisar Opposite Hotel Heavens Park, Telephone Exchange Road, Telephone Exchange Road, Bilaspur-Chhattisgarh - 495001, Hotel Heavens Park"	"Chhattisgarh"	""	"495001"	"India"	"<span class="mobilesv icon-hgd"></span><span class="mobilesv icon-wxl"></span><span class="mobilesv icon-rqi"></span><span class="mobilesv icon-jie"></span><span class="mobilesv icon-wxl"></span><span class="mobilesv icon-vuk"></span><span class="mobilesv icon-jie"></span><span class="mobilesv icon-trs"></span><span class="mobilesv icon-wxl"></span><span class="mobilesv icon-hgd"></span><span class="mobilesv icon-nmg"></span>
		"	""	""	""	""	"https://www.justdial.com/Bilaspur-Chhattisgarh/Bless-The-Unisex-Family-Salon-Hotel-Heavens-Park-Telephone-Exchange-Road/9999P7752-7752-191013114643-D5I1_BZDET?xid=QmlsYXNwdXItQ2hoYXR0aXNnYXJoIEJlYXV0eSBTcGFz"
"  Salons"	"Beauty Town"	"Raj Kishore Nagar, Mopka Seepat Road, Bilaspur H O, Bilaspur-Chhattisgarh - 495001, Opposite R.R Resort"	"Chhattisgarh"	""	"495001"	"India"	"<span class="mobilesv icon-hgd"></span><span class="mobilesv icon-wxl"></span><span class="mobilesv icon-rqi"></span><span class="mobilesv icon-jie"></span><span class="mobilesv icon-wxl"></span><span class="mobilesv icon-vuk"></span><span class="mobilesv icon-jie"></span><span class="mobilesv icon-trs"></span><span class="mobilesv icon-jie"></span><span class="mobilesv icon-rqi"></span><span class="mobilesv icon-trs"></span>
		"	""	""	""	""	"https://www.justdial.com/Bilaspur-Chhattisgarh/Beauty-Town-Opposite-R-R-Resort-Bilaspur-H-O/9999P7752-7752-180728121557-J1U8_BZDET?xid=QmlsYXNwdXItQ2hoYXR0aXNnYXJoIEJlYXV0eSBTcGFz"
"  Salons"	"Rashmis Pearl Skin & Hair W.."	"Tiwari Chhal, Rajendra Nagar, Bilaspur City, Bilaspur-Chhattisgarh - 495001, In Front Of Wearhouse Road"	"Chhattisgarh"	""	"495001"	"India"	"<span class="mobilesv icon-hgd"></span><span class="mobilesv icon-wxl"></span><span class="mobilesv icon-rqi"></span><span class="mobilesv icon-jie"></span><span class="mobilesv icon-wxl"></span><span class="mobilesv icon-vuk"></span><span class="mobilesv icon-jie"></span><span class="mobilesv icon-trs"></span>00<span class="mobilesv icon-fec"></span>
		"	""	""	""	""	"https://www.justdial.com/Bilaspur-Chhattisgarh/Rashmis-Pearl-Skin-Hair-Wellness-Center-In-Front-Of-Wearhouse-Road-Bilaspur-City/9999P7752-7752-200807163546-V2V7_BZDET?xid=QmlsYXNwdXItQ2hoYXR0aXNnYXJoIEJlYXV0eSBTcGFz"
"  Salons"	"Ankitas Unisex Salon"	"Ganesh Chowk, Bilaspur, Nehru Nagar, Bilaspur-Chhattisgarh - 495001, Near By Sai Mandir"	"Chhattisgarh"	""	"495001"	"India"	"<span class="mobilesv icon-hgd"></span><span class="mobilesv icon-wxl"></span><span class="mobilesv icon-rqi"></span><span class="mobilesv icon-jie"></span><span class="mobilesv icon-wxl"></span><span class="mobilesv icon-vuk"></span><span class="mobilesv icon-rqi"></span><span class="mobilesv icon-rqi"></span><span class="mobilesv icon-vuk"></span><span class="mobilesv icon-jie"></span><span class="mobilesv icon-vuk"></span>
		"	""	""	""	""	"https://www.justdial.com/Bilaspur-Chhattisgarh/Ankitas-Unisex-Salon-Near-By-Sai-Mandir-Nehru-Nagar/9999P7752-7752-191112211739-C5Q1_BZDET?xid=QmlsYXNwdXItQ2hoYXR0aXNnYXJoIEJlYXV0eSBTcGFz"
"  Body Massage Centres"	"Bajaj Professionals Salon a.."	"Shop No VF-1, Twin Plaza, Telephone Exchange Road, Bilaspur-chhattisgarh - 495001, Agarsen Chowk, Near Shriram Cloth Market, Opposite PC Jewllers"	"chhattisgarh"	""	"495001"	"India"	"+(<span class="mobilesv icon-rqi"></span><span class="mobilesv icon-fec"></span>)-<span class="mobilesv icon-wxl"></span><span class="mobilesv icon-wxl"></span><span class="mobilesv icon-nmg"></span><span class="mobilesv icon-trs"></span>-<span class="mobilesv icon-jie"></span><span class="mobilesv icon-rqi"></span><span class="mobilesv icon-hgd"></span><span class="mobilesv icon-vuk"></span><span class="mobilesv icon-vuk"></span><span class="mobilesv icon-vuk"></span>
		"	""	""	""	""	"https://www.justdial.com/Bilaspur-Chhattisgarh/Bajaj-Professionals-Salon-and-Acedemy-Agarsen-Chowk-Near-Shriram-Cloth-Market-Opposite-PC-Jewllers-Telephone-Exchange-Road/9999P7752-7752-180419133637-X5C2_BZDET?xid=QmlsYXNwdXItQ2hoYXR0aXNnYXJoIEJlYXV0eSBTcGFz"
"  Hotels"	"A S Fun The Patricians Reso.."	"Sector-C Industrial Area, Raipur Road, Sirgitti, Bilaspur-Chhattisgarh - 495004"	"Chhattisgarh"	""	"495004"	"India"	"+(<span class="mobilesv icon-rqi"></span><span class="mobilesv icon-fec"></span>)-<span class="mobilesv icon-wxl"></span><span class="mobilesv icon-nmg"></span><span class="mobilesv icon-dcb"></span><span class="mobilesv icon-dcb"></span><span class="mobilesv icon-dcb"></span><span class="mobilesv icon-dcb"></span><span class="mobilesv icon-rqi"></span><span class="mobilesv icon-nmg"></span><span class="mobilesv icon-jie"></span><span class="mobilesv icon-jie"></span>
		"	""	""	""	""	"https://www.justdial.com/Bilaspur-Chhattisgarh/A-S-Fun-The-Patricians-Resort-Sirgitti/9999P7752-7752-110321131005-G3C4_BZDET?xid=QmlsYXNwdXItQ2hoYXR0aXNnYXJoIEJlYXV0eSBTcGFz"
"  Salons"	"Meenakshis Salons & Academy"	"Opp. Shankuntalum, Link Road, C M D College Bilaspur, Bilaspur-Chhattisgarh - 495001"	"Chhattisgarh"	""	"495001"	"India"	"+(<span class="mobilesv icon-rqi"></span><span class="mobilesv icon-fec"></span>)-<span class="mobilesv icon-hgd"></span><span class="mobilesv icon-wxl"></span><span class="mobilesv icon-wxl"></span><span class="mobilesv icon-nmg"></span><span class="mobilesv icon-trs"></span>-<span class="mobilesv icon-jie"></span><span class="mobilesv icon-trs"></span><span class="mobilesv icon-wxl"></span><span class="mobilesv icon-trs"></span><span class="mobilesv icon-jie"></span><span class="mobilesv icon-trs"></span>
		"	""	""	""	""	"https://www.justdial.com/Bilaspur-Chhattisgarh/Meenakshis-Salons-Academy-C-M-D-College-Bilaspur/9999P7752-7752-150604183107-E7E2_BZDET?xid=QmlsYXNwdXItQ2hoYXR0aXNnYXJoIEJlYXV0eSBTcGFz"
"  Beauty Spas"	"LOREM SALON & SPA"	"CG PLAZA, BEHIND PC JEWELLERS, TELEPHONE EXCHANGE ROAD, Bilaspur-Chhattisgarh - 495001, Near AGRASEN CHOWK"	"Chhattisgarh"	""	"495001"	"India"	"+(<span class="mobilesv icon-rqi"></span><span class="mobilesv icon-fec"></span>)-<span class="mobilesv icon-rqi"></span><span class="mobilesv icon-hgd"></span><span class="mobilesv icon-rqi"></span>0<span class="mobilesv icon-rqi"></span><span class="mobilesv icon-trs"></span><span class="mobilesv icon-nmg"></span><span class="mobilesv icon-vuk"></span><span class="mobilesv icon-nmg"></span><span class="mobilesv icon-jie"></span>
		"	""	""	""	""	"https://www.justdial.com/Bilaspur-Chhattisgarh/LOREM-SALON-SPA-Near-AGRASEN-CHOWK-TELEPHONE-EXCHANGE-ROAD/9999P7752-7752-180621143027-D5L7_BZDET?xid=QmlsYXNwdXItQ2hoYXR0aXNnYXJoIEJlYXV0eSBTcGFz"
"  Salons"	"Naturals Unisex Salon"	"Topaz Hotel, Link Road, Bilaspur-Chhattisgarh - 495001, Opp. Big Bazar"	"Chhattisgarh"	""	"495001"	"India"	"+(<span class="mobilesv icon-rqi"></span><span class="mobilesv icon-fec"></span>)-<span class="mobilesv icon-rqi"></span><span class="mobilesv icon-rqi"></span>0<span class="mobilesv icon-fec"></span><span class="mobilesv icon-vuk"></span><span class="mobilesv icon-rqi"></span><span class="mobilesv icon-rqi"></span><span class="mobilesv icon-rqi"></span><span class="mobilesv icon-rqi"></span>0
		"	""	""	""	""	"https://www.justdial.com/Bilaspur-Chhattisgarh/Naturals-Unisex-Salon-Opp-Big-Bazar-Link-Road/9999P7752-7752-140523001501-L3Z9_BZDET?xid=QmlsYXNwdXItQ2hoYXR0aXNnYXJoIEJlYXV0eSBTcGFz"
"  Salons"	"Bellazio The Family Salon"	"H-2/75 Narmada Nagar, Nehru Nagar Road, Nehru Nagar, Bilaspur-Chhattisgarh - 495001"	"Chhattisgarh"	""	"495001"	"India"	"+(<span class="mobilesv icon-rqi"></span><span class="mobilesv icon-fec"></span>)-0<span class="mobilesv icon-rqi"></span><span class="mobilesv icon-nmg"></span><span class="mobilesv icon-rqi"></span><span class="mobilesv icon-hgd"></span><span class="mobilesv icon-rqi"></span><span class="mobilesv icon-wxl"></span><span class="mobilesv icon-hgd"></span><span class="mobilesv icon-fec"></span><span class="mobilesv icon-fec"></span>
		"	""	""	""	""	"https://www.justdial.com/Bilaspur-Chhattisgarh/Bellazio-The-Family-Salon-Nehru-Nagar/9999P7752-7752-110808112200-Q8U6_BZDET?xid=QmlsYXNwdXItQ2hoYXR0aXNnYXJoIEJlYXV0eSBTcGFz"
"  Beauty Spas"	"Bliss The Unisex Salon"	"Shanti Elanza, Jarhabhata Road Near Rajiv Gandhi Chowk, Bilaspur H O, Bilaspur-Chhattisgarh - 495001, In Front Of Subhash Complex"	"Chhattisgarh"	""	"495001"	"India"	"+(<span class="mobilesv icon-rqi"></span><span class="mobilesv icon-fec"></span>)-<span class="mobilesv icon-hgd"></span><span class="mobilesv icon-wxl"></span><span class="mobilesv icon-wxl"></span><span class="mobilesv icon-nmg"></span><span class="mobilesv icon-trs"></span>-<span class="mobilesv icon-jie"></span><span class="mobilesv icon-fec"></span><span class="mobilesv icon-vuk"></span>0<span class="mobilesv icon-rqi"></span><span class="mobilesv icon-wxl"></span>
		"	""	""	""	""	"https://www.justdial.com/Bilaspur-Chhattisgarh/Bliss-The-Unisex-Salon-In-Front-Of-Subhash-Complex-Bilaspur-H-O/9999P7752-7752-170802130429-N1D4_BZDET?xid=QmlsYXNwdXItQ2hoYXR0aXNnYXJoIEJlYXV0eSBTcGFz"
"  Beauty Spas"	"Makeover Female Salon Acade.."	"House No. A/42, Infront Of Lane No. L3, Gayatri Mandir Road, Vidya Nagar, Bilaspur-Chhattisgarh - 495004, Near Gayatri Mandir Square and Infront Of Lane No. L3"	"Chhattisgarh"	""	"495004"	"India"	"+(<span class="mobilesv icon-rqi"></span><span class="mobilesv icon-fec"></span>)-00<span class="mobilesv icon-fec"></span><span class="mobilesv icon-wxl"></span><span class="mobilesv icon-wxl"></span><span class="mobilesv icon-hgd"></span><span class="mobilesv icon-dcb"></span>00<span class="mobilesv icon-trs"></span>
		"	""	""	""	""	"https://www.justdial.com/Bilaspur-Chhattisgarh/Makeover-Female-Salon-Academy-Near-Gayatri-Mandir-Square-and-Infront-Of-Lane-No-L3-Vidya-Nagar/9999P7752-7752-170714190518-N5F1_BZDET?xid=QmlsYXNwdXItQ2hoYXR0aXNnYXJoIEJlYXV0eSBTcGFz"
"  Beauty Parlours"	"VLCC Unisex Salon"	"Bilaspur, Idgah Road, IDGAH Chowk, Bilaspur-Chhattisgarh - 495001, Beside Nice Tech Computer"	"Chhattisgarh"	""	"495001"	"India"	"+(<span class="mobilesv icon-rqi"></span><span class="mobilesv icon-fec"></span>)-<span class="mobilesv icon-hgd"></span><span class="mobilesv icon-wxl"></span><span class="mobilesv icon-wxl"></span><span class="mobilesv icon-nmg"></span><span class="mobilesv icon-trs"></span>-<span class="mobilesv icon-jie"></span><span class="mobilesv icon-fec"></span><span class="mobilesv icon-wxl"></span><span class="mobilesv icon-wxl"></span><span class="mobilesv icon-hgd"></span><span class="mobilesv icon-hgd"></span>
		"	""	""	""	""	"https://www.justdial.com/Bilaspur-Chhattisgarh/VLCC-Unisex-Salon-Beside-Nice-Tech-Computer-IDGAH-Chowk/9999P7752-7752-170607144128-L2N4_BZDET?xid=QmlsYXNwdXItQ2hoYXR0aXNnYXJoIEJlYXV0eSBTcGFz"
"  Salons"	"Ankitas Unisex Salon"	"Ganesh Chowk, Bilaspur, Nehru Nagar, Bilaspur-Chhattisgarh - 495001, Near By Sai Mandir"	"Chhattisgarh"	""	"495001"	"India"	"<span class="mobilesv icon-fec"></span><span class="mobilesv icon-lkf"></span><span class="mobilesv icon-dcb"></span><span class="mobilesv icon-baa"></span><span class="mobilesv icon-lkf"></span><span class="mobilesv icon-nmg"></span><span class="mobilesv icon-dcb"></span><span class="mobilesv icon-dcb"></span><span class="mobilesv icon-nmg"></span><span class="mobilesv icon-baa"></span><span class="mobilesv icon-nmg"></span>
		"	""	""	""	""	"https://www.justdial.com/Bilaspur-Chhattisgarh/Ankitas-Unisex-Salon-Near-By-Sai-Mandir-Nehru-Nagar/9999P7752-7752-191112211739-C5Q1_BZDET?xid=QmlsYXNwdXItQ2hoYXR0aXNnYXJoIEJlYXV0eSBTcGFz"
"  Body Massage Centres"	"Bajaj Professionals Salon a.."	"Shop No VF-1, Twin Plaza, Telephone Exchange Road, Bilaspur-chhattisgarh - 495001, Agarsen Chowk, Near Shriram Cloth Market, Opposite PC Jewllers"	"chhattisgarh"	""	"495001"	"India"	"+(<span class="mobilesv icon-dcb"></span><span class="mobilesv icon-jie"></span>)-<span class="mobilesv icon-lkf"></span><span class="mobilesv icon-lkf"></span><span class="mobilesv icon-tsj"></span><span class="mobilesv icon-trs"></span>-<span class="mobilesv icon-baa"></span><span class="mobilesv icon-dcb"></span><span class="mobilesv icon-fec"></span><span class="mobilesv icon-nmg"></span><span class="mobilesv icon-nmg"></span><span class="mobilesv icon-nmg"></span>
		"	""	""	""	""	"https://www.justdial.com/Bilaspur-Chhattisgarh/Bajaj-Professionals-Salon-and-Acedemy-Agarsen-Chowk-Near-Shriram-Cloth-Market-Opposite-PC-Jewllers-Telephone-Exchange-Road/9999P7752-7752-180419133637-X5C2_BZDET?xid=QmlsYXNwdXItQ2hoYXR0aXNnYXJoIEJlYXV0eSBTcGFz"
"  Hotels"	"A S Fun The Patricians Reso.."	"Sector-C Industrial Area, Raipur Road, Sirgitti, Bilaspur-Chhattisgarh - 495004"	"Chhattisgarh"	""	"495004"	"India"	"+(<span class="mobilesv icon-dcb"></span><span class="mobilesv icon-jie"></span>)-<span class="mobilesv icon-lkf"></span><span class="mobilesv icon-tsj"></span><span class="mobilesv icon-hgd"></span><span class="mobilesv icon-hgd"></span><span class="mobilesv icon-hgd"></span><span class="mobilesv icon-hgd"></span><span class="mobilesv icon-dcb"></span><span class="mobilesv icon-tsj"></span><span class="mobilesv icon-baa"></span><span class="mobilesv icon-baa"></span>
		"	""	""	""	""	"https://www.justdial.com/Bilaspur-Chhattisgarh/A-S-Fun-The-Patricians-Resort-Sirgitti/9999P7752-7752-110321131005-G3C4_BZDET?xid=QmlsYXNwdXItQ2hoYXR0aXNnYXJoIEJlYXV0eSBTcGFz"
"  Salons"	"Meenakshis Salons & Academy"	"Opp. Shankuntalum, Link Road, C M D College Bilaspur, Bilaspur-Chhattisgarh - 495001"	"Chhattisgarh"	""	"495001"	"India"	"+(<span class="mobilesv icon-dcb"></span><span class="mobilesv icon-jie"></span>)-<span class="mobilesv icon-fec"></span><span class="mobilesv icon-lkf"></span><span class="mobilesv icon-lkf"></span><span class="mobilesv icon-tsj"></span><span class="mobilesv icon-trs"></span>-<span class="mobilesv icon-baa"></span><span class="mobilesv icon-trs"></span><span class="mobilesv icon-lkf"></span><span class="mobilesv icon-trs"></span><span class="mobilesv icon-baa"></span><span class="mobilesv icon-trs"></span>
		"	""	""	""	""	"https://www.justdial.com/Bilaspur-Chhattisgarh/Meenakshis-Salons-Academy-C-M-D-College-Bilaspur/9999P7752-7752-150604183107-E7E2_BZDET?xid=QmlsYXNwdXItQ2hoYXR0aXNnYXJoIEJlYXV0eSBTcGFz"
"  Beauty Spas"	"LOREM SALON & SPA"	"CG PLAZA, BEHIND PC JEWELLERS, TELEPHONE EXCHANGE ROAD, Bilaspur-Chhattisgarh - 495001, Near AGRASEN CHOWK"	"Chhattisgarh"	""	"495001"	"India"	"+(<span class="mobilesv icon-dcb"></span><span class="mobilesv icon-jie"></span>)-<span class="mobilesv icon-dcb"></span><span class="mobilesv icon-fec"></span><span class="mobilesv icon-dcb"></span><span class="mobilesv icon-poh"></span><span class="mobilesv icon-dcb"></span><span class="mobilesv icon-trs"></span><span class="mobilesv icon-tsj"></span><span class="mobilesv icon-nmg"></span><span class="mobilesv icon-tsj"></span><span class="mobilesv icon-baa"></span>
		"	""	""	""	""	"https://www.justdial.com/Bilaspur-Chhattisgarh/LOREM-SALON-SPA-Near-AGRASEN-CHOWK-TELEPHONE-EXCHANGE-ROAD/9999P7752-7752-180621143027-D5L7_BZDET?xid=QmlsYXNwdXItQ2hoYXR0aXNnYXJoIEJlYXV0eSBTcGFz"
"  Salons"	"Naturals Unisex Salon"	"Topaz Hotel, Link Road, Bilaspur-Chhattisgarh - 495001, Opp. Big Bazar"	"Chhattisgarh"	""	"495001"	"India"	"+(<span class="mobilesv icon-dcb"></span><span class="mobilesv icon-jie"></span>)-<span class="mobilesv icon-dcb"></span><span class="mobilesv icon-dcb"></span><span class="mobilesv icon-poh"></span><span class="mobilesv icon-jie"></span><span class="mobilesv icon-nmg"></span><span class="mobilesv icon-dcb"></span><span class="mobilesv icon-dcb"></span><span class="mobilesv icon-dcb"></span><span class="mobilesv icon-dcb"></span><span class="mobilesv icon-poh"></span>
		"	""	""	""	""	"https://www.justdial.com/Bilaspur-Chhattisgarh/Naturals-Unisex-Salon-Opp-Big-Bazar-Link-Road/9999P7752-7752-140523001501-L3Z9_BZDET?xid=QmlsYXNwdXItQ2hoYXR0aXNnYXJoIEJlYXV0eSBTcGFz"
"  Salons"	"Bellazio The Family Salon"	"H-2/75 Narmada Nagar, Nehru Nagar Road, Nehru Nagar, Bilaspur-Chhattisgarh - 495001"	"Chhattisgarh"	""	"495001"	"India"	"+(<span class="mobilesv icon-dcb"></span><span class="mobilesv icon-jie"></span>)-<span class="mobilesv icon-poh"></span><span class="mobilesv icon-dcb"></span><span class="mobilesv icon-tsj"></span><span class="mobilesv icon-dcb"></span><span class="mobilesv icon-fec"></span><span class="mobilesv icon-dcb"></span><span class="mobilesv icon-lkf"></span><span class="mobilesv icon-fec"></span><span class="mobilesv icon-jie"></span><span class="mobilesv icon-jie"></span>
		"	""	""	""	""	"https://www.justdial.com/Bilaspur-Chhattisgarh/Bellazio-The-Family-Salon-Nehru-Nagar/9999P7752-7752-110808112200-Q8U6_BZDET?xid=QmlsYXNwdXItQ2hoYXR0aXNnYXJoIEJlYXV0eSBTcGFz"
"  Beauty Spas"	"Bliss The Unisex Salon"	"Shanti Elanza, Jarhabhata Road Near Rajiv Gandhi Chowk, Bilaspur H O, Bilaspur-Chhattisgarh - 495001, In Front Of Subhash Complex"	"Chhattisgarh"	""	"495001"	"India"	"+(<span class="mobilesv icon-dcb"></span><span class="mobilesv icon-jie"></span>)-<span class="mobilesv icon-fec"></span><span class="mobilesv icon-lkf"></span><span class="mobilesv icon-lkf"></span><span class="mobilesv icon-tsj"></span><span class="mobilesv icon-trs"></span>-<span class="mobilesv icon-baa"></span><span class="mobilesv icon-jie"></span><span class="mobilesv icon-nmg"></span><span class="mobilesv icon-poh"></span><span class="mobilesv icon-dcb"></span><span class="mobilesv icon-lkf"></span>
		"	""	""	""	""	"https://www.justdial.com/Bilaspur-Chhattisgarh/Bliss-The-Unisex-Salon-In-Front-Of-Subhash-Complex-Bilaspur-H-O/9999P7752-7752-170802130429-N1D4_BZDET?xid=QmlsYXNwdXItQ2hoYXR0aXNnYXJoIEJlYXV0eSBTcGFz"
"  Beauty Spas"	"Makeover Female Salon Acade.."	"House No. A/42, Infront Of Lane No. L3, Gayatri Mandir Road, Vidya Nagar, Bilaspur-Chhattisgarh - 495004, Near Gayatri Mandir Square and Infront Of Lane No. L3"	"Chhattisgarh"	""	"495004"	"India"	"+(<span class="mobilesv icon-dcb"></span><span class="mobilesv icon-jie"></span>)-<span class="mobilesv icon-poh"></span><span class="mobilesv icon-poh"></span><span class="mobilesv icon-jie"></span><span class="mobilesv icon-lkf"></span><span class="mobilesv icon-lkf"></span><span class="mobilesv icon-fec"></span><span class="mobilesv icon-hgd"></span><span class="mobilesv icon-poh"></span><span class="mobilesv icon-poh"></span><span class="mobilesv icon-trs"></span>
		"	""	""	""	""	"https://www.justdial.com/Bilaspur-Chhattisgarh/Makeover-Female-Salon-Academy-Near-Gayatri-Mandir-Square-and-Infront-Of-Lane-No-L3-Vidya-Nagar/9999P7752-7752-170714190518-N5F1_BZDET?xid=QmlsYXNwdXItQ2hoYXR0aXNnYXJoIEJlYXV0eSBTcGFz"
"  Beauty Parlours"	"VLCC Unisex Salon"	"Bilaspur, Idgah Road, IDGAH Chowk, Bilaspur-Chhattisgarh - 495001, Beside Nice Tech Computer"	"Chhattisgarh"	""	"495001"	"India"	"+(<span class="mobilesv icon-dcb"></span><span class="mobilesv icon-jie"></span>)-<span class="mobilesv icon-fec"></span><span class="mobilesv icon-lkf"></span><span class="mobilesv icon-lkf"></span><span class="mobilesv icon-tsj"></span><span class="mobilesv icon-trs"></span>-<span class="mobilesv icon-baa"></span><span class="mobilesv icon-jie"></span><span class="mobilesv icon-lkf"></span><span class="mobilesv icon-lkf"></span><span class="mobilesv icon-fec"></span><span class="mobilesv icon-fec"></span>
		"	""	""	""	""	"https://www.justdial.com/Bilaspur-Chhattisgarh/VLCC-Unisex-Salon-Beside-Nice-Tech-Computer-IDGAH-Chowk/9999P7752-7752-170607144128-L2N4_BZDET?xid=QmlsYXNwdXItQ2hoYXR0aXNnYXJoIEJlYXV0eSBTcGFz"
"  Beauty Parlours"	"Super 36 The Unisex Salon"	"Sisodia Complex, Shiv Talkies Road, Shiv Talkies Chowk, Bilaspur-chhattisgarh - 495001, Beside Rajsthan Marble"	"chhattisgarh"	""	"495001"	"India"	"+(<span class="mobilesv icon-dcb"></span><span class="mobilesv icon-jie"></span>)-<span class="mobilesv icon-dcb"></span><span class="mobilesv icon-lkf"></span><span class="mobilesv icon-lkf"></span><span class="mobilesv icon-fec"></span><span class="mobilesv icon-hgd"></span><span class="mobilesv icon-hgd"></span><span class="mobilesv icon-hgd"></span><span class="mobilesv icon-jie"></span><span class="mobilesv icon-tsj"></span><span class="mobilesv icon-tsj"></span>
		"	""	""	""	""	"https://www.justdial.com/Bilaspur-Chhattisgarh/Super-36-The-Unisex-Salon-Beside-Rajsthan-Marble-Shiv-Talkies-Chowk/9999P7752-7752-131212153136-F8S9_BZDET?xid=QmlsYXNwdXItQ2hoYXR0aXNnYXJoIEJlYXV0eSBTcGFz"
"  Body Massage Centres"	"The Scissor City Unisex Sal.."	"2nd Floor, Shop No.51, 36 City Mall, Mangla Chowk, Mangla, Bilaspur-Chhattisgarh - 495001"	"Chhattisgarh"	""	"495001"	"India"	"+(<span class="mobilesv icon-dcb"></span><span class="mobilesv icon-jie"></span>)-<span class="mobilesv icon-lkf"></span><span class="mobilesv icon-tsj"></span><span class="mobilesv icon-poh"></span><span class="mobilesv icon-jie"></span><span class="mobilesv icon-poh"></span><span class="mobilesv icon-trs"></span><span class="mobilesv icon-nmg"></span><span class="mobilesv icon-poh"></span><span class="mobilesv icon-tsj"></span><span class="mobilesv icon-poh"></span>
		"	""	""	""	""	"https://www.justdial.com/Bilaspur-Chhattisgarh/The-Scissor-City-Unisex-Salon-Spa-Mangla/9999P7752-7752-171028212008-E2M2_BZDET?xid=QmlsYXNwdXItQ2hoYXR0aXNnYXJoIEJlYXV0eSBTcGFz"
"  Salons"	"The Makeup Mantra Female Sa.."	"Tikrapara Main Road, Shiv Talkies Chowk, Tikrapara, Bilaspur-Chhattisgarh - 495001, Nearby Baiya Ji Sweets"	"Chhattisgarh"	""	"495001"	"India"	"+(<span class="mobilesv icon-dcb"></span><span class="mobilesv icon-jie"></span>)-<span class="mobilesv icon-poh"></span><span class="mobilesv icon-nmg"></span><span class="mobilesv icon-jie"></span><span class="mobilesv icon-dcb"></span><span class="mobilesv icon-fec"></span><span class="mobilesv icon-tsj"></span><span class="mobilesv icon-hgd"></span><span class="mobilesv icon-hgd"></span><span class="mobilesv icon-tsj"></span><span class="mobilesv icon-nmg"></span>
		"	""	""	""	""	"https://www.justdial.com/Bilaspur-Chhattisgarh/The-Makeup-Mantra-Female-Salon-and-Academy-Nearby-Baiya-Ji-Sweets-Tikrapara/9999P7752-7752-200219142831-C9X9_BZDET?xid=QmlsYXNwdXItQ2hoYXR0aXNnYXJoIEJlYXV0eSBTcGFz"
"  Beauty Spas"	"Style & Smile"	"Shop No. 48, Vyapar Vihar Road, Bilaspur-Chhattisgarh - 495001, Rama Magneto Mall Palika Bazar"	"Chhattisgarh"	""	"495001"	"India"	"+(<span class="mobilesv icon-dcb"></span><span class="mobilesv icon-jie"></span>)-<span class="mobilesv icon-poh"></span><span class="mobilesv icon-nmg"></span><span class="mobilesv icon-baa"></span><span class="mobilesv icon-dcb"></span><span class="mobilesv icon-baa"></span><span class="mobilesv icon-nmg"></span><span class="mobilesv icon-nmg"></span><span class="mobilesv icon-nmg"></span><span class="mobilesv icon-poh"></span><span class="mobilesv icon-jie"></span>
		"	""	""	""	""	"https://www.justdial.com/Bilaspur-Chhattisgarh/Style-Smile-Rama-Magneto-Mall-Palika-Bazar-Vyapar-Vihar-Road/9999P7752-7752-190905180204-G1K2_BZDET?xid=QmlsYXNwdXItQ2hoYXR0aXNnYXJoIEJlYXV0eSBTcGFz"
"  Dermatologists"	"Venus Cosmetic Beauty Clini.."	"Raghuveer Enclave, Flat No.202, Warehouse Road, Bilaspur-Chhattisgarh - 495001, Beside Udaya Children Hospital"	"Chhattisgarh"	""	"495001"	"India"	"+(<span class="mobilesv icon-dcb"></span><span class="mobilesv icon-jie"></span>)-<span class="mobilesv icon-lkf"></span><span class="mobilesv icon-lkf"></span><span class="mobilesv icon-tsj"></span><span class="mobilesv icon-trs"></span>-<span class="mobilesv icon-baa"></span><span class="mobilesv icon-trs"></span><span class="mobilesv icon-poh"></span><span class="mobilesv icon-tsj"></span><span class="mobilesv icon-nmg"></span><span class="mobilesv icon-lkf"></span>
		"	""	""	""	""	"https://www.justdial.com/Bilaspur-Chhattisgarh/Venus-Cosmetic-Beauty-Clinic-Beside-Udaya-Children-Hospital-Warehouse-Road/9999P7752-7752-100423161136-P6S3DC_BZDET?xid=QmlsYXNwdXItQ2hoYXR0aXNnYXJoIEJlYXV0eSBTcGFz"
"  Salons"	"Barbers Nation"	"Shop No 77, 3rd Floor, Srikant Verma Marg, Bilaspur H O, Bilaspur-Chhattisgarh - 495001, Rama Magneto Mall"	"Chhattisgarh"	""	"495001"	"India"	"+(<span class="mobilesv icon-dcb"></span><span class="mobilesv icon-jie"></span>)-<span class="mobilesv icon-dcb"></span><span class="mobilesv icon-jie"></span><span class="mobilesv icon-baa"></span><span class="mobilesv icon-baa"></span><span class="mobilesv icon-baa"></span><span class="mobilesv icon-dcb"></span><span class="mobilesv icon-dcb"></span><span class="mobilesv icon-dcb"></span><span class="mobilesv icon-tsj"></span><span class="mobilesv icon-tsj"></span>
		"	""	""	""	""	"https://www.justdial.com/Bilaspur-Chhattisgarh/Barbers-Nation-Rama-Magneto-Mall-Bilaspur-H-O/9999P7752-7752-160730133142-V4Z2_BZDET?xid=QmlsYXNwdXItQ2hoYXR0aXNnYXJoIEJlYXV0eSBTcGFz"
"  Beauty Spas"	"Pearl Beauty Clinic & Spa"	"Ganesh Chowk, Nehru Nagar, Ameri Road, Nehru Nagar, Bilaspur-Chhattisgarh - 495001"	"Chhattisgarh"	""	"495001"	"India"	"+(<span class="mobilesv icon-dcb"></span><span class="mobilesv icon-jie"></span>)-<span class="mobilesv icon-dcb"></span><span class="mobilesv icon-dcb"></span><span class="mobilesv icon-lkf"></span><span class="mobilesv icon-lkf"></span><span class="mobilesv icon-dcb"></span><span class="mobilesv icon-trs"></span><span class="mobilesv icon-fec"></span><span class="mobilesv icon-fec"></span><span class="mobilesv icon-trs"></span><span class="mobilesv icon-dcb"></span>
		"	""	""	""	""	"https://www.justdial.com/Bilaspur-Chhattisgarh/Pearl-Beauty-Clinic-Spa-Nehru-Nagar/9999PMULMUMSTDS000145_BZDET?xid=QmlsYXNwdXItQ2hoYXR0aXNnYXJoIEJlYXV0eSBTcGFz"
"  Beauty Spas"	"Talwalkars Gym And Spa"	"Vyapar Vihar, Bilaspur, Vyapar Vihar Road, Bilaspur-Chhattisgarh - 495001"	"Chhattisgarh"	""	"495001"	"India"	"+(<span class="mobilesv icon-dcb"></span><span class="mobilesv icon-jie"></span>)-<span class="mobilesv icon-lkf"></span><span class="mobilesv icon-lkf"></span><span class="mobilesv icon-tsj"></span><span class="mobilesv icon-trs"></span><span class="mobilesv icon-baa"></span><span class="mobilesv icon-nmg"></span><span class="mobilesv icon-baa"></span><span class="mobilesv icon-trs"></span><span class="mobilesv icon-tsj"></span><span class="mobilesv icon-jie"></span>
		"	""	""	""	""	"https://www.justdial.com/Bilaspur-Chhattisgarh/Talwalkars-Gym-And-Spa-Vyapar-Vihar-Road/9999P7752-7752-170112233105-A5C7_BZDET?xid=QmlsYXNwdXItQ2hoYXR0aXNnYXJoIEJlYXV0eSBTcGFz"
"  Beauty Spas"	"Oxy Ladies Salon"	"Old High Court Road, Gandhi Chowk, Bilaspur-Chhattisgarh - 495001, Near- D.P College, Infront Of Path IAS Academy"	"Chhattisgarh"	""	"495001"	"India"	"+(<span class="mobilesv icon-dcb"></span><span class="mobilesv icon-jie"></span>)-<span class="mobilesv icon-poh"></span><span class="mobilesv icon-poh"></span><span class="mobilesv icon-jie"></span><span class="mobilesv icon-lkf"></span><span class="mobilesv icon-dcb"></span><span class="mobilesv icon-jie"></span><span class="mobilesv icon-lkf"></span><span class="mobilesv icon-nmg"></span><span class="mobilesv icon-lkf"></span><span class="mobilesv icon-jie"></span>
		"	""	""	""	""	"https://www.justdial.com/Bilaspur-Chhattisgarh/Oxy-Ladies-Salon-Near-D-P-College-Infront-Of-Path-IAS-Academy-Gandhi-Chowk/9999P7752-7752-180802112014-S5C5_BZDET?xid=QmlsYXNwdXItQ2hoYXR0aXNnYXJoIEJlYXV0eSBTcGFz"
"  Body Massage Centres"	"Casa Wellness For Body And .."	"36 City Mall Shop No50 B Second Floor, Mangla, Mangla, Bilaspur-Chhattisgarh - 495001, Near Courtyard Marriot Hotel"	"Chhattisgarh"	""	"495001"	"India"	"+(<span class="mobilesv icon-dcb"></span><span class="mobilesv icon-jie"></span>)-<span class="mobilesv icon-poh"></span><span class="mobilesv icon-poh"></span><span class="mobilesv icon-trs"></span><span class="mobilesv icon-lkf"></span><span class="mobilesv icon-lkf"></span><span class="mobilesv icon-lkf"></span><span class="mobilesv icon-hgd"></span><span class="mobilesv icon-fec"></span><span class="mobilesv icon-tsj"></span><span class="mobilesv icon-fec"></span>
		"	""	""	""	""	"https://www.justdial.com/Bilaspur-Chhattisgarh/Casa-Wellness-For-Body-And-Mind-Near-Courtyard-Marriot-Hotel-Mangla/9999P7752-7752-181020170742-D5T6_BZDET?xid=QmlsYXNwdXItQ2hoYXR0aXNnYXJoIEJlYXV0eSBTcGFz"
"  Beauty Parlours"	"Super 36 The Unisex Salon"	"Sisodia Complex, Shiv Talkies Road, Shiv Talkies Chowk, Bilaspur-chhattisgarh - 495001, Beside Rajsthan Marble"	"chhattisgarh"	""	"495001"	"India"	"+(<span class="mobilesv icon-yzm"></span><span class="mobilesv icon-wxl"></span>)-<span class="mobilesv icon-yzm"></span><span class="mobilesv icon-wyx"></span><span class="mobilesv icon-wyx"></span><span class="mobilesv icon-rqi"></span><span class="mobilesv icon-vuk"></span><span class="mobilesv icon-vuk"></span><span class="mobilesv icon-vuk"></span><span class="mobilesv icon-wxl"></span><span class="mobilesv icon-dcb"></span><span class="mobilesv icon-dcb"></span>
		"	""	""	""	""	"https://www.justdial.com/Bilaspur-Chhattisgarh/Super-36-The-Unisex-Salon-Beside-Rajsthan-Marble-Shiv-Talkies-Chowk/9999P7752-7752-131212153136-F8S9_BZDET?xid=QmlsYXNwdXItQ2hoYXR0aXNnYXJoIEJlYXV0eSBTcGFz"
"  Body Massage Centres"	"The Scissor City Unisex Sal.."	"2nd Floor, Shop No.51, 36 City Mall, Mangla Chowk, Mangla, Bilaspur-Chhattisgarh - 495001"	"Chhattisgarh"	""	"495001"	"India"	"+(<span class="mobilesv icon-yzm"></span><span class="mobilesv icon-wxl"></span>)-<span class="mobilesv icon-wyx"></span><span class="mobilesv icon-dcb"></span><span class="mobilesv icon-nlm"></span><span class="mobilesv icon-wxl"></span><span class="mobilesv icon-nlm"></span><span class="mobilesv icon-tsj"></span><span class="mobilesv icon-fde"></span><span class="mobilesv icon-nlm"></span><span class="mobilesv icon-dcb"></span><span class="mobilesv icon-nlm"></span>
		"	""	""	""	""	"https://www.justdial.com/Bilaspur-Chhattisgarh/The-Scissor-City-Unisex-Salon-Spa-Mangla/9999P7752-7752-171028212008-E2M2_BZDET?xid=QmlsYXNwdXItQ2hoYXR0aXNnYXJoIEJlYXV0eSBTcGFz"
"  Salons"	"The Makeup Mantra Female Sa.."	"Tikrapara Main Road, Shiv Talkies Chowk, Tikrapara, Bilaspur-Chhattisgarh - 495001, Nearby Baiya Ji Sweets"	"Chhattisgarh"	""	"495001"	"India"	"+(<span class="mobilesv icon-yzm"></span><span class="mobilesv icon-wxl"></span>)-<span class="mobilesv icon-nlm"></span><span class="mobilesv icon-fde"></span><span class="mobilesv icon-wxl"></span><span class="mobilesv icon-yzm"></span><span class="mobilesv icon-rqi"></span><span class="mobilesv icon-dcb"></span><span class="mobilesv icon-vuk"></span><span class="mobilesv icon-vuk"></span><span class="mobilesv icon-dcb"></span><span class="mobilesv icon-fde"></span>
		"	""	""	""	""	"https://www.justdial.com/Bilaspur-Chhattisgarh/The-Makeup-Mantra-Female-Salon-and-Academy-Nearby-Baiya-Ji-Sweets-Tikrapara/9999P7752-7752-200219142831-C9X9_BZDET?xid=QmlsYXNwdXItQ2hoYXR0aXNnYXJoIEJlYXV0eSBTcGFz"
"  Beauty Spas"	"Style & Smile"	"Shop No. 48, Vyapar Vihar Road, Bilaspur-Chhattisgarh - 495001, Rama Magneto Mall Palika Bazar"	"Chhattisgarh"	""	"495001"	"India"	"+(<span class="mobilesv icon-yzm"></span><span class="mobilesv icon-wxl"></span>)-<span class="mobilesv icon-nlm"></span><span class="mobilesv icon-fde"></span><span class="mobilesv icon-nmg"></span><span class="mobilesv icon-yzm"></span><span class="mobilesv icon-nmg"></span><span class="mobilesv icon-fde"></span><span class="mobilesv icon-fde"></span><span class="mobilesv icon-fde"></span><span class="mobilesv icon-nlm"></span><span class="mobilesv icon-wxl"></span>
		"	""	""	""	""	"https://www.justdial.com/Bilaspur-Chhattisgarh/Style-Smile-Rama-Magneto-Mall-Palika-Bazar-Vyapar-Vihar-Road/9999P7752-7752-190905180204-G1K2_BZDET?xid=QmlsYXNwdXItQ2hoYXR0aXNnYXJoIEJlYXV0eSBTcGFz"
"  Dermatologists"	"Venus Cosmetic Beauty Clini.."	"Raghuveer Enclave, Flat No.202, Warehouse Road, Bilaspur-Chhattisgarh - 495001, Beside Udaya Children Hospital"	"Chhattisgarh"	""	"495001"	"India"	"+(<span class="mobilesv icon-yzm"></span><span class="mobilesv icon-wxl"></span>)-<span class="mobilesv icon-wyx"></span><span class="mobilesv icon-wyx"></span><span class="mobilesv icon-dcb"></span><span class="mobilesv icon-tsj"></span>-<span class="mobilesv icon-nmg"></span><span class="mobilesv icon-tsj"></span><span class="mobilesv icon-nlm"></span><span class="mobilesv icon-dcb"></span><span class="mobilesv icon-fde"></span><span class="mobilesv icon-wyx"></span>
		"	""	""	""	""	"https://www.justdial.com/Bilaspur-Chhattisgarh/Venus-Cosmetic-Beauty-Clinic-Beside-Udaya-Children-Hospital-Warehouse-Road/9999P7752-7752-100423161136-P6S3DC_BZDET?xid=QmlsYXNwdXItQ2hoYXR0aXNnYXJoIEJlYXV0eSBTcGFz"
"  Salons"	"Barbers Nation"	"Shop No 77, 3rd Floor, Srikant Verma Marg, Bilaspur H O, Bilaspur-Chhattisgarh - 495001, Rama Magneto Mall"	"Chhattisgarh"	""	"495001"	"India"	"+(<span class="mobilesv icon-yzm"></span><span class="mobilesv icon-wxl"></span>)-<span class="mobilesv icon-yzm"></span><span class="mobilesv icon-wxl"></span><span class="mobilesv icon-nmg"></span><span class="mobilesv icon-nmg"></span><span class="mobilesv icon-nmg"></span><span class="mobilesv icon-yzm"></span><span class="mobilesv icon-yzm"></span><span class="mobilesv icon-yzm"></span><span class="mobilesv icon-dcb"></span><span class="mobilesv icon-dcb"></span>
		"	""	""	""	""	"https://www.justdial.com/Bilaspur-Chhattisgarh/Barbers-Nation-Rama-Magneto-Mall-Bilaspur-H-O/9999P7752-7752-160730133142-V4Z2_BZDET?xid=QmlsYXNwdXItQ2hoYXR0aXNnYXJoIEJlYXV0eSBTcGFz"
"  Beauty Spas"	"Pearl Beauty Clinic & Spa"	"Ganesh Chowk, Nehru Nagar, Ameri Road, Nehru Nagar, Bilaspur-Chhattisgarh - 495001"	"Chhattisgarh"	""	"495001"	"India"	"+(<span class="mobilesv icon-yzm"></span><span class="mobilesv icon-wxl"></span>)-<span class="mobilesv icon-yzm"></span><span class="mobilesv icon-yzm"></span><span class="mobilesv icon-wyx"></span><span class="mobilesv icon-wyx"></span><span class="mobilesv icon-yzm"></span><span class="mobilesv icon-tsj"></span><span class="mobilesv icon-rqi"></span><span class="mobilesv icon-rqi"></span><span class="mobilesv icon-tsj"></span><span class="mobilesv icon-yzm"></span>
		"	""	""	""	""	"https://www.justdial.com/Bilaspur-Chhattisgarh/Pearl-Beauty-Clinic-Spa-Nehru-Nagar/9999PMULMUMSTDS000145_BZDET?xid=QmlsYXNwdXItQ2hoYXR0aXNnYXJoIEJlYXV0eSBTcGFz"
"  Beauty Spas"	"Talwalkars Gym And Spa"	"Vyapar Vihar, Bilaspur, Vyapar Vihar Road, Bilaspur-Chhattisgarh - 495001"	"Chhattisgarh"	""	"495001"	"India"	"+(<span class="mobilesv icon-yzm"></span><span class="mobilesv icon-wxl"></span>)-<span class="mobilesv icon-wyx"></span><span class="mobilesv icon-wyx"></span><span class="mobilesv icon-dcb"></span><span class="mobilesv icon-tsj"></span><span class="mobilesv icon-nmg"></span><span class="mobilesv icon-fde"></span><span class="mobilesv icon-nmg"></span><span class="mobilesv icon-tsj"></span><span class="mobilesv icon-dcb"></span><span class="mobilesv icon-wxl"></span>
		"	""	""	""	""	"https://www.justdial.com/Bilaspur-Chhattisgarh/Talwalkars-Gym-And-Spa-Vyapar-Vihar-Road/9999P7752-7752-170112233105-A5C7_BZDET?xid=QmlsYXNwdXItQ2hoYXR0aXNnYXJoIEJlYXV0eSBTcGFz"
"  Beauty Spas"	"Oxy Ladies Salon"	"Old High Court Road, Gandhi Chowk, Bilaspur-Chhattisgarh - 495001, Near- D.P College, Infront Of Path IAS Academy"	"Chhattisgarh"	""	"495001"	"India"	"+(<span class="mobilesv icon-yzm"></span><span class="mobilesv icon-wxl"></span>)-<span class="mobilesv icon-nlm"></span><span class="mobilesv icon-nlm"></span><span class="mobilesv icon-wxl"></span><span class="mobilesv icon-wyx"></span><span class="mobilesv icon-yzm"></span><span class="mobilesv icon-wxl"></span><span class="mobilesv icon-wyx"></span><span class="mobilesv icon-fde"></span><span class="mobilesv icon-wyx"></span><span class="mobilesv icon-wxl"></span>
		"	""	""	""	""	"https://www.justdial.com/Bilaspur-Chhattisgarh/Oxy-Ladies-Salon-Near-D-P-College-Infront-Of-Path-IAS-Academy-Gandhi-Chowk/9999P7752-7752-180802112014-S5C5_BZDET?xid=QmlsYXNwdXItQ2hoYXR0aXNnYXJoIEJlYXV0eSBTcGFz"
"  Body Massage Centres"	"Casa Wellness For Body And .."	"36 City Mall Shop No50 B Second Floor, Mangla, Mangla, Bilaspur-Chhattisgarh - 495001, Near Courtyard Marriot Hotel"	"Chhattisgarh"	""	"495001"	"India"	"+(<span class="mobilesv icon-yzm"></span><span class="mobilesv icon-wxl"></span>)-<span class="mobilesv icon-nlm"></span><span class="mobilesv icon-nlm"></span><span class="mobilesv icon-tsj"></span><span class="mobilesv icon-wyx"></span><span class="mobilesv icon-wyx"></span><span class="mobilesv icon-wyx"></span><span class="mobilesv icon-vuk"></span><span class="mobilesv icon-rqi"></span><span class="mobilesv icon-dcb"></span><span class="mobilesv icon-rqi"></span>
		"	""	""	""	""	"https://www.justdial.com/Bilaspur-Chhattisgarh/Casa-Wellness-For-Body-And-Mind-Near-Courtyard-Marriot-Hotel-Mangla/9999P7752-7752-181020170742-D5T6_BZDET?xid=QmlsYXNwdXItQ2hoYXR0aXNnYXJoIEJlYXV0eSBTcGFz"
"  Dermatologists"	"Kosmeticoz"	"C/O Kosmeticoz, Near Balmukund School, Bharti Nagar, Bilaspur-Chhattisgarh - 495001"	"Chhattisgarh"	""	"495001"	"India"	"<span class="mobilesv icon-tsj"></span><span class="mobilesv icon-nmg"></span><span class="mobilesv icon-rqi"></span><span class="mobilesv icon-wyx"></span>
		"	""	""	""	""	"https://www.justdial.com/Bilaspur-Chhattisgarh/Kosmeticoz-Bharti-Nagar/9999P7752-7752-180211114416-D1G6_BZDET?xid=QmlsYXNwdXItQ2hoYXR0aXNnYXJoIEJlYXV0eSBTcGFz"
"  Body Massage Centres"	"Style Spa"	"Maa Amola Villa, Mopka Village (, Bilaspur, Mopka, Bilaspur-Chhattisgarh - 495006, Near Chunni Singh Talab)"	"Chhattisgarh"	""	"495006"	"India"	"+(<span class="mobilesv icon-yzm"></span><span class="mobilesv icon-wxl"></span>)-<span class="mobilesv icon-yzm"></span><span class="mobilesv icon-fde"></span><span class="mobilesv icon-tsj"></span><span class="mobilesv icon-yzm"></span><span class="mobilesv icon-dcb"></span><span class="mobilesv icon-dcb"></span><span class="mobilesv icon-vuk"></span><span class="mobilesv icon-dcb"></span><span class="mobilesv icon-tsj"></span><span class="mobilesv icon-rqi"></span>
		"	""	""	""	""	"https://www.justdial.com/Bilaspur-Chhattisgarh/Style-Spa-Near-Chunni-Singh-Talab-Mopka/9999P7752-7752-181003072657-D3W7_BZDET?xid=QmlsYXNwdXItQ2hoYXR0aXNnYXJoIEJlYXV0eSBTcGFz"
"  Body Massage Centres"	"THE PEACE OF MIND WELLNESS .."	"Shop No. D5, Shiv Talkies Road-Shiv Talkies Chowk, Shiv Talkies Chowk, Bilaspur-Chhattisgarh - 495001, City Centre"	"Chhattisgarh"	""	"495001"	"India"	"+(<span class="mobilesv icon-yzm"></span><span class="mobilesv icon-wxl"></span>)-<span class="mobilesv icon-nlm"></span><span class="mobilesv icon-nmg"></span><span class="mobilesv icon-vuk"></span><span class="mobilesv icon-fde"></span><span class="mobilesv icon-rqi"></span><span class="mobilesv icon-rqi"></span><span class="mobilesv icon-wxl"></span><span class="mobilesv icon-wxl"></span><span class="mobilesv icon-rqi"></span><span class="mobilesv icon-rqi"></span>
		"	""	""	""	""	"https://www.justdial.com/Bilaspur-Chhattisgarh/THE-PEACE-OF-MIND-WELLNESS-SPA-CENTER-City-Centre-Shiv-Talkies-Chowk/9999P7752-7752-200508123119-F6L9_BZDET?xid=QmlsYXNwdXItQ2hoYXR0aXNnYXJoIEJlYXV0eSBTcGFz"
"  Body Massage Centres"	"Aanandam Wellness Spa & Sal.."	"Agrasen Square Chowk,, Link Road, Distt. Bilaspur (C.G), Bilaspur H O, Bilaspur-Chhattisgarh - 495001, Inside Hotel East Park"	"Chhattisgarh"	""	"495001"	"India"	"+(<span class="mobilesv icon-yzm"></span><span class="mobilesv icon-wxl"></span>)-<span class="mobilesv icon-wyx"></span><span class="mobilesv icon-nlm"></span><span class="mobilesv icon-fde"></span><span class="mobilesv icon-rqi"></span><span class="mobilesv icon-wyx"></span><span class="mobilesv icon-yzm"></span><span class="mobilesv icon-rqi"></span><span class="mobilesv icon-dcb"></span><span class="mobilesv icon-nlm"></span><span class="mobilesv icon-dcb"></span>
		"	""	""	""	""	"https://www.justdial.com/Bilaspur-Chhattisgarh/Aanandam-Wellness-Spa-Salon-Inside-Hotel-East-Park-Bilaspur-H-O/9999P7752-7752-140827143421-F8J2_BZDET?xid=QmlsYXNwdXItQ2hoYXR0aXNnYXJoIEJlYXV0eSBTcGFz"
"  Body Massage Centres"	"Siaura Thai Spa (City Mall .."	"2nd Floor, City Mall 36, Mangla, Bilaspur-Chhattisgarh - 495001, Near Mangla Chowk, Beside Utsav Vatika"	"Chhattisgarh"	""	"495001"	"India"	"+(<span class="mobilesv icon-yzm"></span><span class="mobilesv icon-wxl"></span>)-<span class="mobilesv icon-wyx"></span><span class="mobilesv icon-wyx"></span><span class="mobilesv icon-dcb"></span><span class="mobilesv icon-tsj"></span>-<span class="mobilesv icon-tsj"></span><span class="mobilesv icon-wyx"></span><span class="mobilesv icon-wxl"></span><span class="mobilesv icon-nlm"></span><span class="mobilesv icon-dcb"></span><span class="mobilesv icon-nmg"></span>
		"	""	""	""	""	"https://www.justdial.com/Bilaspur-Chhattisgarh/Siaura-Thai-Spa-City-Mall-36-Near-Mangla-Chowk-Beside-Utsav-Vatika-Mangla/9999P7752-7752-150503151043-J1G1_BZDET?xid=QmlsYXNwdXItQ2hoYXR0aXNnYXJoIEJlYXV0eSBTcGFz"
"  Salons"	"Femina Beauty Collection"	"Karona Chowk Main Road, Sadar Bazar, Bilaspur-Chhattisgarh - 495001"	"Chhattisgarh"	""	"495001"	"India"	"+(<span class="mobilesv icon-yzm"></span><span class="mobilesv icon-wxl"></span>)-<span class="mobilesv icon-yzm"></span><span class="mobilesv icon-nlm"></span><span class="mobilesv icon-tsj"></span><span class="mobilesv icon-vuk"></span><span class="mobilesv icon-tsj"></span><span class="mobilesv icon-rqi"></span><span class="mobilesv icon-nlm"></span><span class="mobilesv icon-vuk"></span><span class="mobilesv icon-nmg"></span><span class="mobilesv icon-vuk"></span>
		"	""	""	""	""	"https://www.justdial.com/Bilaspur-Chhattisgarh/Femina-Beauty-Collection-Sadar-Bazar/9999P7752-7752-110217153020-Q1W2_BZDET?xid=QmlsYXNwdXItQ2hoYXR0aXNnYXJoIEJlYXV0eSBTcGFz"
"  Beauty Spas"	"Vishal General Store"	"Shop No.3/4, SHASTRI MARKET, Gole Bazar Road-Gole Bazar, Bilaspur-Chhattisgarh - 495001, Near BILASPUR HO"	"Chhattisgarh"	""	"495001"	"India"	"+(<span class="mobilesv icon-yzm"></span><span class="mobilesv icon-wxl"></span>)-<span class="mobilesv icon-yzm"></span><span class="mobilesv icon-nlm"></span><span class="mobilesv icon-tsj"></span><span class="mobilesv icon-wyx"></span><span class="mobilesv icon-dcb"></span><span class="mobilesv icon-nmg"></span><span class="mobilesv icon-rqi"></span><span class="mobilesv icon-fde"></span><span class="mobilesv icon-rqi"></span><span class="mobilesv icon-tsj"></span>
		"	""	""	""	""	"https://www.justdial.com/Bilaspur-Chhattisgarh/Vishal-General-Store-Near-BILASPUR-HO-Gole-Bazar-Road-Gole-Bazar/9999P7752-7752-150527170828-D7G8_BZDET?xid=QmlsYXNwdXItQ2hoYXR0aXNnYXJoIEJlYXV0eSBTcGFz"
"  Dermatologists"	"VLCC Healthcare Ltd"	"Idgah Road, Idgah Chowk, Bilaspur-Chhattisgarh - 495001, Beside Nice Tech Computer"	"Chhattisgarh"	""	"495001"	"India"	"+(<span class="mobilesv icon-yzm"></span><span class="mobilesv icon-wxl"></span>)-<span class="mobilesv icon-rqi"></span><span class="mobilesv icon-wyx"></span><span class="mobilesv icon-wyx"></span><span class="mobilesv icon-dcb"></span><span class="mobilesv icon-tsj"></span>-<span class="mobilesv icon-nmg"></span><span class="mobilesv icon-rqi"></span><span class="mobilesv icon-rqi"></span><span class="mobilesv icon-rqi"></span><span class="mobilesv icon-vuk"></span><span class="mobilesv icon-vuk"></span>
		"	""	""	""	""	"https://www.justdial.com/Bilaspur-Chhattisgarh/VLCC-Healthcare-Ltd-Beside-Nice-Tech-Computer-Idgah-Chowk/9999P7752-7752-140730145557-W1G6_BZDET?xid=QmlsYXNwdXItQ2hoYXR0aXNnYXJoIEJlYXV0eSBTcGFz"
"  Salons"	"Lorem Salon"	"G 9 10 Ground Floor CG Plaza, Near Agrasen Chowk, Telephone Exchange Road, Bilaspur-Chhattisgarh - 495001, Behind PC JEWELLERS"	"Chhattisgarh"	""	"495001"	"India"	"<span class="mobilesv icon-rqi"></span><span class="mobilesv icon-wyx"></span><span class="mobilesv icon-yzm"></span><span class="mobilesv icon-nmg"></span><span class="mobilesv icon-wyx"></span><span class="mobilesv icon-fde"></span><span class="mobilesv icon-nmg"></span><span class="mobilesv icon-tsj"></span><span class="mobilesv icon-dcb"></span><span class="mobilesv icon-yzm"></span><span class="mobilesv icon-wyx"></span>
		"	""	""	""	""	"https://www.justdial.com/Bilaspur-Chhattisgarh/Lorem-Salon-Behind-PC-JEWELLERS-Telephone-Exchange-Road/9999P7752-7752-190329144656-Z9E6_BZDET?xid=QmlsYXNwdXItQ2hoYXR0aXNnYXJoIEJlYXV0eSBTcGFz"
"  Beauty Parlours"	"98 Hair Studio"	"Shop No D4 Beside Of Shree Ram Tower, Vyapar Vihar Road, Bilaspur-Chhattisgarh - 495001"	"Chhattisgarh"	""	"495001"	"India"	"+(<span class="mobilesv icon-yzm"></span><span class="mobilesv icon-wxl"></span>)-<span class="mobilesv icon-nlm"></span><span class="mobilesv icon-nlm"></span><span class="mobilesv icon-wyx"></span><span class="mobilesv icon-nlm"></span><span class="mobilesv icon-nlm"></span><span class="mobilesv icon-tsj"></span><span class="mobilesv icon-tsj"></span><span class="mobilesv icon-tsj"></span><span class="mobilesv icon-tsj"></span><span class="mobilesv icon-vuk"></span>
		"	""	""	""	""	"https://www.justdial.com/Bilaspur-Chhattisgarh/98-Hair-Studio-Vyapar-Vihar-Road/9999P7752-7752-190703133826-M1E6_BZDET?xid=QmlsYXNwdXItQ2hoYXR0aXNnYXJoIEJlYXV0eSBTcGFz"
"  Dermatologists"	"Kosmeticoz"	"C/O Kosmeticoz, Near Balmukund School, Bharti Nagar, Bilaspur-Chhattisgarh - 495001"	"Chhattisgarh"	""	"495001"	"India"	"<span class="mobilesv icon-tsj"></span><span class="mobilesv icon-oqp"></span><span class="mobilesv icon-yzm"></span><span class="mobilesv icon-lkf"></span>
		"	""	""	""	""	"https://www.justdial.com/Bilaspur-Chhattisgarh/Kosmeticoz-Bharti-Nagar/9999P7752-7752-180211114416-D1G6_BZDET?xid=QmlsYXNwdXItQ2hoYXR0aXNnYXJoIEJlYXV0eSBTcGFz"
"  Body Massage Centres"	"Style Spa"	"Maa Amola Villa, Mopka Village (, Bilaspur, Mopka, Bilaspur-Chhattisgarh - 495006, Near Chunni Singh Talab)"	"Chhattisgarh"	""	"495006"	"India"	"+(<span class="mobilesv icon-nlm"></span><span class="mobilesv icon-ikj"></span>)-<span class="mobilesv icon-nlm"></span><span class="mobilesv icon-hgd"></span><span class="mobilesv icon-tsj"></span><span class="mobilesv icon-nlm"></span><span class="mobilesv icon-trs"></span><span class="mobilesv icon-trs"></span><span class="mobilesv icon-fde"></span><span class="mobilesv icon-trs"></span><span class="mobilesv icon-tsj"></span><span class="mobilesv icon-yzm"></span>
		"	""	""	""	""	"https://www.justdial.com/Bilaspur-Chhattisgarh/Style-Spa-Near-Chunni-Singh-Talab-Mopka/9999P7752-7752-181003072657-D3W7_BZDET?xid=QmlsYXNwdXItQ2hoYXR0aXNnYXJoIEJlYXV0eSBTcGFz"
"  Body Massage Centres"	"THE PEACE OF MIND WELLNESS .."	"Shop No. D5, Shiv Talkies Road-Shiv Talkies Chowk, Shiv Talkies Chowk, Bilaspur-Chhattisgarh - 495001, City Centre"	"Chhattisgarh"	""	"495001"	"India"	"+(<span class="mobilesv icon-nlm"></span><span class="mobilesv icon-ikj"></span>)-<span class="mobilesv icon-wyx"></span><span class="mobilesv icon-oqp"></span><span class="mobilesv icon-fde"></span><span class="mobilesv icon-hgd"></span><span class="mobilesv icon-yzm"></span><span class="mobilesv icon-yzm"></span><span class="mobilesv icon-ikj"></span><span class="mobilesv icon-ikj"></span><span class="mobilesv icon-yzm"></span><span class="mobilesv icon-yzm"></span>
		"	""	""	""	""	"https://www.justdial.com/Bilaspur-Chhattisgarh/THE-PEACE-OF-MIND-WELLNESS-SPA-CENTER-City-Centre-Shiv-Talkies-Chowk/9999P7752-7752-200508123119-F6L9_BZDET?xid=QmlsYXNwdXItQ2hoYXR0aXNnYXJoIEJlYXV0eSBTcGFz"
"  Body Massage Centres"	"Aanandam Wellness Spa & Sal.."	"Agrasen Square Chowk,, Link Road, Distt. Bilaspur (C.G), Bilaspur H O, Bilaspur-Chhattisgarh - 495001, Inside Hotel East Park"	"Chhattisgarh"	""	"495001"	"India"	"+(<span class="mobilesv icon-nlm"></span><span class="mobilesv icon-ikj"></span>)-<span class="mobilesv icon-lkf"></span><span class="mobilesv icon-wyx"></span><span class="mobilesv icon-hgd"></span><span class="mobilesv icon-yzm"></span><span class="mobilesv icon-lkf"></span><span class="mobilesv icon-nlm"></span><span class="mobilesv icon-yzm"></span><span class="mobilesv icon-trs"></span><span class="mobilesv icon-wyx"></span><span class="mobilesv icon-trs"></span>
		"	""	""	""	""	"https://www.justdial.com/Bilaspur-Chhattisgarh/Aanandam-Wellness-Spa-Salon-Inside-Hotel-East-Park-Bilaspur-H-O/9999P7752-7752-140827143421-F8J2_BZDET?xid=QmlsYXNwdXItQ2hoYXR0aXNnYXJoIEJlYXV0eSBTcGFz"
"  Body Massage Centres"	"Siaura Thai Spa (City Mall .."	"2nd Floor, City Mall 36, Mangla, Bilaspur-Chhattisgarh - 495001, Near Mangla Chowk, Beside Utsav Vatika"	"Chhattisgarh"	""	"495001"	"India"	"+(<span class="mobilesv icon-nlm"></span><span class="mobilesv icon-ikj"></span>)-<span class="mobilesv icon-lkf"></span><span class="mobilesv icon-lkf"></span><span class="mobilesv icon-trs"></span><span class="mobilesv icon-tsj"></span>-<span class="mobilesv icon-tsj"></span><span class="mobilesv icon-lkf"></span><span class="mobilesv icon-ikj"></span><span class="mobilesv icon-wyx"></span><span class="mobilesv icon-trs"></span><span class="mobilesv icon-oqp"></span>
		"	""	""	""	""	"https://www.justdial.com/Bilaspur-Chhattisgarh/Siaura-Thai-Spa-City-Mall-36-Near-Mangla-Chowk-Beside-Utsav-Vatika-Mangla/9999P7752-7752-150503151043-J1G1_BZDET?xid=QmlsYXNwdXItQ2hoYXR0aXNnYXJoIEJlYXV0eSBTcGFz"
"  Salons"	"Femina Beauty Collection"	"Karona Chowk Main Road, Sadar Bazar, Bilaspur-Chhattisgarh - 495001"	"Chhattisgarh"	""	"495001"	"India"	"+(<span class="mobilesv icon-nlm"></span><span class="mobilesv icon-ikj"></span>)-<span class="mobilesv icon-nlm"></span><span class="mobilesv icon-wyx"></span><span class="mobilesv icon-tsj"></span><span class="mobilesv icon-fde"></span><span class="mobilesv icon-tsj"></span><span class="mobilesv icon-yzm"></span><span class="mobilesv icon-wyx"></span><span class="mobilesv icon-fde"></span><span class="mobilesv icon-oqp"></span><span class="mobilesv icon-fde"></span>
		"	""	""	""	""	"https://www.justdial.com/Bilaspur-Chhattisgarh/Femina-Beauty-Collection-Sadar-Bazar/9999P7752-7752-110217153020-Q1W2_BZDET?xid=QmlsYXNwdXItQ2hoYXR0aXNnYXJoIEJlYXV0eSBTcGFz"
"  Beauty Spas"	"Vishal General Store"	"Shop No.3/4, SHASTRI MARKET, Gole Bazar Road-Gole Bazar, Bilaspur-Chhattisgarh - 495001, Near BILASPUR HO"	"Chhattisgarh"	""	"495001"	"India"	"+(<span class="mobilesv icon-nlm"></span><span class="mobilesv icon-ikj"></span>)-<span class="mobilesv icon-nlm"></span><span class="mobilesv icon-wyx"></span><span class="mobilesv icon-tsj"></span><span class="mobilesv icon-lkf"></span><span class="mobilesv icon-trs"></span><span class="mobilesv icon-oqp"></span><span class="mobilesv icon-yzm"></span><span class="mobilesv icon-hgd"></span><span class="mobilesv icon-yzm"></span><span class="mobilesv icon-tsj"></span>
		"	""	""	""	""	"https://www.justdial.com/Bilaspur-Chhattisgarh/Vishal-General-Store-Near-BILASPUR-HO-Gole-Bazar-Road-Gole-Bazar/9999P7752-7752-150527170828-D7G8_BZDET?xid=QmlsYXNwdXItQ2hoYXR0aXNnYXJoIEJlYXV0eSBTcGFz"
"  Dermatologists"	"VLCC Healthcare Ltd"	"Idgah Road, Idgah Chowk, Bilaspur-Chhattisgarh - 495001, Beside Nice Tech Computer"	"Chhattisgarh"	""	"495001"	"India"	"+(<span class="mobilesv icon-nlm"></span><span class="mobilesv icon-ikj"></span>)-<span class="mobilesv icon-yzm"></span><span class="mobilesv icon-lkf"></span><span class="mobilesv icon-lkf"></span><span class="mobilesv icon-trs"></span><span class="mobilesv icon-tsj"></span>-<span class="mobilesv icon-oqp"></span><span class="mobilesv icon-yzm"></span><span class="mobilesv icon-yzm"></span><span class="mobilesv icon-yzm"></span><span class="mobilesv icon-fde"></span><span class="mobilesv icon-fde"></span>
		"	""	""	""	""	"https://www.justdial.com/Bilaspur-Chhattisgarh/VLCC-Healthcare-Ltd-Beside-Nice-Tech-Computer-Idgah-Chowk/9999P7752-7752-140730145557-W1G6_BZDET?xid=QmlsYXNwdXItQ2hoYXR0aXNnYXJoIEJlYXV0eSBTcGFz"
"  Salons"	"Lorem Salon"	"G 9 10 Ground Floor CG Plaza, Near Agrasen Chowk, Telephone Exchange Road, Bilaspur-Chhattisgarh - 495001, Behind PC JEWELLERS"	"Chhattisgarh"	""	"495001"	"India"	"<span class="mobilesv icon-yzm"></span><span class="mobilesv icon-lkf"></span><span class="mobilesv icon-nlm"></span><span class="mobilesv icon-oqp"></span><span class="mobilesv icon-lkf"></span><span class="mobilesv icon-hgd"></span><span class="mobilesv icon-oqp"></span><span class="mobilesv icon-tsj"></span><span class="mobilesv icon-trs"></span><span class="mobilesv icon-nlm"></span><span class="mobilesv icon-lkf"></span>
		"	""	""	""	""	"https://www.justdial.com/Bilaspur-Chhattisgarh/Lorem-Salon-Behind-PC-JEWELLERS-Telephone-Exchange-Road/9999P7752-7752-190329144656-Z9E6_BZDET?xid=QmlsYXNwdXItQ2hoYXR0aXNnYXJoIEJlYXV0eSBTcGFz"
"  Beauty Parlours"	"98 Hair Studio"	"Shop No D4 Beside Of Shree Ram Tower, Vyapar Vihar Road, Bilaspur-Chhattisgarh - 495001"	"Chhattisgarh"	""	"495001"	"India"	"+(<span class="mobilesv icon-nlm"></span><span class="mobilesv icon-ikj"></span>)-<span class="mobilesv icon-wyx"></span><span class="mobilesv icon-wyx"></span><span class="mobilesv icon-lkf"></span><span class="mobilesv icon-wyx"></span><span class="mobilesv icon-wyx"></span><span class="mobilesv icon-tsj"></span><span class="mobilesv icon-tsj"></span><span class="mobilesv icon-tsj"></span><span class="mobilesv icon-tsj"></span><span class="mobilesv icon-fde"></span>
		"	""	""	""	""	"https://www.justdial.com/Bilaspur-Chhattisgarh/98-Hair-Studio-Vyapar-Vihar-Road/9999P7752-7752-190703133826-M1E6_BZDET?xid=QmlsYXNwdXItQ2hoYXR0aXNnYXJoIEJlYXV0eSBTcGFz"
"  Salons"	"Matrix Make Over Spa Treat"	"Ansh Plaza,Apna Bazar, Near UCO Bank, Ring Road 2, Bilaspur-Chhattisgarh - 495001, Near Mangla Chowk,Gauravpath"	"Chhattisgarh"	""	"495001"	"India"	"+(<span class="mobilesv icon-nlm"></span><span class="mobilesv icon-ikj"></span>)-<span class="mobilesv icon-lkf"></span><span class="mobilesv icon-nlm"></span><span class="mobilesv icon-lkf"></span><span class="mobilesv icon-oqp"></span><span class="mobilesv icon-trs"></span><span class="mobilesv icon-ikj"></span><span class="mobilesv icon-hgd"></span><span class="mobilesv icon-hgd"></span><span class="mobilesv icon-oqp"></span><span class="mobilesv icon-trs"></span>
		"	""	""	""	""	"https://www.justdial.com/Bilaspur-Chhattisgarh/Matrix-Make-Over-Spa-Treat-Near-Mangla-Chowk-Gauravpath-Ring-Road-2/9999P7752-7752-170902190011-M9U7_BZDET?xid=QmlsYXNwdXItQ2hoYXR0aXNnYXJoIEJlYXV0eSBTcGFz"
"  Beauty Parlours"	"Zaynah Beauty Salon & Bouti.."	"SAI PARISAR COMPLEX NEAR JJ HOSPITAL TORWA, GROUND FLOOR, SHOP NO 102, TORWA, Bilaspur-Chhattisgarh - 495004, NEAR J J HOSPITAL"	"Chhattisgarh"	""	"495004"	"India"	"+(<span class="mobilesv icon-nlm"></span><span class="mobilesv icon-ikj"></span>)-<span class="mobilesv icon-nlm"></span><span class="mobilesv icon-wyx"></span><span class="mobilesv icon-tsj"></span><span class="mobilesv icon-lkf"></span><span class="mobilesv icon-ikj"></span><span class="mobilesv icon-lkf"></span><span class="mobilesv icon-lkf"></span><span class="mobilesv icon-hgd"></span><span class="mobilesv icon-yzm"></span><span class="mobilesv icon-lkf"></span>
		"	""	""	""	""	"https://www.justdial.com/Bilaspur-Chhattisgarh/Zaynah-Beauty-Salon-Boutique-NEAR-J-J-HOSPITAL-TORWA/9999P7752-7752-170330111546-V8R1_BZDET?xid=QmlsYXNwdXItQ2hoYXR0aXNnYXJoIEJlYXV0eSBTcGFz"
"  Beauty Spas"	"Ojal Fish Spa & Unisex Beau.."	"Shop No 21 Second Floor, Bilaspur H O, Bilaspur-Chhattisgarh - 495001, Near Rama Magneto Mall"	"Chhattisgarh"	""	"495001"	"India"	"+(<span class="mobilesv icon-nlm"></span><span class="mobilesv icon-ikj"></span>)-<span class="mobilesv icon-yzm"></span><span class="mobilesv icon-lkf"></span><span class="mobilesv icon-lkf"></span><span class="mobilesv icon-trs"></span><span class="mobilesv icon-tsj"></span>-<span class="mobilesv icon-oqp"></span><span class="mobilesv icon-yzm"></span><span class="mobilesv icon-fde"></span><span class="mobilesv icon-oqp"></span><span class="mobilesv icon-nlm"></span><span class="mobilesv icon-ikj"></span>
		"	""	""	""	""	"https://www.justdial.com/Bilaspur-Chhattisgarh/Ojal-Fish-Spa-Unisex-Beauty-Parlour-Near-Rama-Magneto-Mall-Bilaspur-H-O/9999P7752-7752-170715135151-P6L5_BZDET?xid=QmlsYXNwdXItQ2hoYXR0aXNnYXJoIEJlYXV0eSBTcGFz"
"  Beauty Spas"	"EveS Angel Beauty Clinic &S.."	"A 3, Murarka Menshion, L2, Sahgal Gali, In Front Of Pooja Stationary, Vidya Nagar Main Raod, Vidya Nagar, Bilaspur-Chhattisgarh - 495004, Near Tiwari Aata Chakki"	"Chhattisgarh"	""	"495004"	"India"	"+(<span class="mobilesv icon-nlm"></span><span class="mobilesv icon-ikj"></span>)-<span class="mobilesv icon-nlm"></span><span class="mobilesv icon-wyx"></span><span class="mobilesv icon-nlm"></span><span class="mobilesv icon-hgd"></span><span class="mobilesv icon-ikj"></span><span class="mobilesv icon-tsj"></span><span class="mobilesv icon-wyx"></span><span class="mobilesv icon-nlm"></span><span class="mobilesv icon-nlm"></span><span class="mobilesv icon-lkf"></span>
		"	""	""	""	""	"https://www.justdial.com/Bilaspur-Chhattisgarh/EveS-Angel-Beauty-Clinic-Spa-Near-Tiwari-Aata-Chakki-Vidya-Nagar/9999P7752-7752-171206021025-K2W7_BZDET?xid=QmlsYXNwdXItQ2hoYXR0aXNnYXJoIEJlYXV0eSBTcGFz"
"  Beauty Spas"	"Ikonic Beauty Clinic & Spa"	"Sindhi Collony, Jarhabhata, Bilaspur-Chhattisgarh - 495004, Mandir Chowk"	"Chhattisgarh"	""	"495004"	"India"	"+(<span class="mobilesv icon-nlm"></span><span class="mobilesv icon-ikj"></span>)-<span class="mobilesv icon-nlm"></span><span class="mobilesv icon-nlm"></span><span class="mobilesv icon-nlm"></span><span class="mobilesv icon-hgd"></span><span class="mobilesv icon-fde"></span><span class="mobilesv icon-oqp"></span><span class="mobilesv icon-fde"></span><span class="mobilesv icon-oqp"></span><span class="mobilesv icon-tsj"></span><span class="mobilesv icon-trs"></span>
		"	""	""	""	""	"https://www.justdial.com/Bilaspur-Chhattisgarh/Ikonic-Beauty-Clinic-Spa-Mandir-Chowk-Jarhabhata/9999P7752-7752-150709172609-W2V3_BZDET?xid=QmlsYXNwdXItQ2hoYXR0aXNnYXJoIEJlYXV0eSBTcGFz"
"  Salons"	"The Looks Unisex Salon"	"Shop No.09 Rajive Plaza, Infront Of Navbharat Press, Bilaspur H O, Bilaspur-Chhattisgarh - 495001, Jeet Talkies"	"Chhattisgarh"	""	"495001"	"India"	"+(<span class="mobilesv icon-nlm"></span><span class="mobilesv icon-ikj"></span>)-<span class="mobilesv icon-nlm"></span><span class="mobilesv icon-nlm"></span><span class="mobilesv icon-tsj"></span><span class="mobilesv icon-fde"></span><span class="mobilesv icon-ikj"></span><span class="mobilesv icon-trs"></span><span class="mobilesv icon-nlm"></span><span class="mobilesv icon-wyx"></span><span class="mobilesv icon-fde"></span><span class="mobilesv icon-hgd"></span>
		"	""	""	""	""	"https://www.justdial.com/Bilaspur-Chhattisgarh/The-Looks-Unisex-Salon-Jeet-Talkies-Bilaspur-H-O/9999P7752-7752-150916131358-R3J2_BZDET?xid=QmlsYXNwdXItQ2hoYXR0aXNnYXJoIEJlYXV0eSBTcGFz"
"  Beauty Spas"	"Divine Beauty Parlour & Spa"	"Nehru Nagar, Bilaspur-Chhattisgarh - 495001, Opposite Balram Talkies"	"Chhattisgarh"	""	"495001"	"India"	"+(<span class="mobilesv icon-nlm"></span><span class="mobilesv icon-ikj"></span>)-<span class="mobilesv icon-fde"></span><span class="mobilesv icon-tsj"></span><span class="mobilesv icon-fde"></span><span class="mobilesv icon-yzm"></span><span class="mobilesv icon-oqp"></span><span class="mobilesv icon-fde"></span><span class="mobilesv icon-oqp"></span><span class="mobilesv icon-trs"></span><span class="mobilesv icon-oqp"></span><span class="mobilesv icon-nlm"></span>
		"	""	""	""	""	"https://www.justdial.com/Bilaspur-Chhattisgarh/Divine-Beauty-Parlour-Spa-Opposite-Balram-Talkies-Nehru-Nagar/9999P7752-7752-170724131649-R5D2_BZDET?xid=QmlsYXNwdXItQ2hoYXR0aXNnYXJoIEJlYXV0eSBTcGFz"
"  Body Massage Centres"	"Luxury Salveo The Spa"	"Hotel Patricians Sector-C, Sirgitti A. S Fun (Bubble Island), Bilaspur H O, Bilaspur-Chhattisgarh - 495001, Near New Bus Stand Sirgitti"	"Chhattisgarh"	""	"495001"	"India"	"+(<span class="mobilesv icon-nlm"></span><span class="mobilesv icon-ikj"></span>)-<span class="mobilesv icon-nlm"></span><span class="mobilesv icon-lkf"></span><span class="mobilesv icon-lkf"></span><span class="mobilesv icon-yzm"></span><span class="mobilesv icon-yzm"></span><span class="mobilesv icon-tsj"></span><span class="mobilesv icon-yzm"></span><span class="mobilesv icon-yzm"></span><span class="mobilesv icon-yzm"></span><span class="mobilesv icon-ikj"></span>
		"	""	""	""	""	"https://www.justdial.com/Bilaspur-Chhattisgarh/Luxury-Salveo-The-Spa-Near-New-Bus-Stand-Sirgitti-Bilaspur-H-O/9999P7752-7752-171002145553-Z1Z2_BZDET?xid=QmlsYXNwdXItQ2hoYXR0aXNnYXJoIEJlYXV0eSBTcGFz"
"  Body Massage Centres"	"Shyamkant Jaiswal"	"House No 570, Bandhvapara, Gali No 6 K 2, Bus Stand Road, Bilaspur-chhattisgarh - 495001, Sarkanda"	"chhattisgarh"	""	"495001"	"India"	""	""	""	""	""	"https://www.justdial.com/Bilaspur-Chhattisgarh/Shyamkant-Jaiswal-Sarkanda-Bus-Stand-Road/9999P7752-7752-151028211521-W7S2_BZDET?xid=QmlsYXNwdXItQ2hoYXR0aXNnYXJoIEJlYXV0eSBTcGFz"
"  Beauty Parlours"	"Paradise Beauty Collection"	"Shop Number 1, Telipara Road, Madhyanagari Chowk, Bilaspur-Chhattisgarh - 495001"	"Chhattisgarh"	""	"495001"	"India"	"+(<span class="mobilesv icon-nlm"></span><span class="mobilesv icon-ikj"></span>)-<span class="mobilesv icon-nlm"></span><span class="mobilesv icon-lkf"></span><span class="mobilesv icon-trs"></span><span class="mobilesv icon-tsj"></span><span class="mobilesv icon-oqp"></span><span class="mobilesv icon-yzm"></span><span class="mobilesv icon-fde"></span><span class="mobilesv icon-fde"></span><span class="mobilesv icon-yzm"></span><span class="mobilesv icon-yzm"></span>
		"	""	""	""	""	"https://www.justdial.com/Bilaspur-Chhattisgarh/Paradise-Beauty-Collection-Madhyanagari-Chowk/9999P7752-7752-150904125258-K1T8_BZDET?xid=QmlsYXNwdXItQ2hoYXR0aXNnYXJoIEJlYXV0eSBTcGFz"
"  Salons"	"Matrix Make Over Spa Treat"	"Ansh Plaza,Apna Bazar, Near UCO Bank, Ring Road 2, Bilaspur-Chhattisgarh - 495001, Near Mangla Chowk,Gauravpath"	"Chhattisgarh"	""	"495001"	"India"	"+(<span class="mobilesv icon-wxl"></span><span class="mobilesv icon-nmg"></span>)-<span class="mobilesv icon-yzm"></span><span class="mobilesv icon-wxl"></span><span class="mobilesv icon-yzm"></span><span class="mobilesv icon-rqi"></span><span class="mobilesv icon-baa"></span><span class="mobilesv icon-nmg"></span><span class="mobilesv icon-lkf"></span><span class="mobilesv icon-lkf"></span><span class="mobilesv icon-rqi"></span><span class="mobilesv icon-baa"></span>
		"	""	""	""	""	"https://www.justdial.com/Bilaspur-Chhattisgarh/Matrix-Make-Over-Spa-Treat-Near-Mangla-Chowk-Gauravpath-Ring-Road-2/9999P7752-7752-170902190011-M9U7_BZDET?xid=QmlsYXNwdXItQ2hoYXR0aXNnYXJoIEJlYXV0eSBTcGFz"
"  Beauty Parlours"	"Zaynah Beauty Salon & Bouti.."	"SAI PARISAR COMPLEX NEAR JJ HOSPITAL TORWA, GROUND FLOOR, SHOP NO 102, TORWA, Bilaspur-Chhattisgarh - 495004, NEAR J J HOSPITAL"	"Chhattisgarh"	""	"495004"	"India"	"+(<span class="mobilesv icon-wxl"></span><span class="mobilesv icon-nmg"></span>)-<span class="mobilesv icon-wxl"></span><span class="mobilesv icon-hgd"></span><span class="mobilesv icon-oqp"></span><span class="mobilesv icon-yzm"></span><span class="mobilesv icon-nmg"></span><span class="mobilesv icon-yzm"></span><span class="mobilesv icon-yzm"></span><span class="mobilesv icon-lkf"></span><span class="mobilesv icon-trs"></span><span class="mobilesv icon-yzm"></span>
		"	""	""	""	""	"https://www.justdial.com/Bilaspur-Chhattisgarh/Zaynah-Beauty-Salon-Boutique-NEAR-J-J-HOSPITAL-TORWA/9999P7752-7752-170330111546-V8R1_BZDET?xid=QmlsYXNwdXItQ2hoYXR0aXNnYXJoIEJlYXV0eSBTcGFz"
"  Beauty Spas"	"Ojal Fish Spa & Unisex Beau.."	"Shop No 21 Second Floor, Bilaspur H O, Bilaspur-Chhattisgarh - 495001, Near Rama Magneto Mall"	"Chhattisgarh"	""	"495001"	"India"	"+(<span class="mobilesv icon-wxl"></span><span class="mobilesv icon-nmg"></span>)-<span class="mobilesv icon-trs"></span><span class="mobilesv icon-yzm"></span><span class="mobilesv icon-yzm"></span><span class="mobilesv icon-baa"></span><span class="mobilesv icon-oqp"></span>-<span class="mobilesv icon-rqi"></span><span class="mobilesv icon-trs"></span><span class="mobilesv icon-nlm"></span><span class="mobilesv icon-rqi"></span><span class="mobilesv icon-wxl"></span><span class="mobilesv icon-nmg"></span>
		"	""	""	""	""	"https://www.justdial.com/Bilaspur-Chhattisgarh/Ojal-Fish-Spa-Unisex-Beauty-Parlour-Near-Rama-Magneto-Mall-Bilaspur-H-O/9999P7752-7752-170715135151-P6L5_BZDET?xid=QmlsYXNwdXItQ2hoYXR0aXNnYXJoIEJlYXV0eSBTcGFz"
"  Beauty Spas"	"EveS Angel Beauty Clinic &S.."	"A 3, Murarka Menshion, L2, Sahgal Gali, In Front Of Pooja Stationary, Vidya Nagar Main Raod, Vidya Nagar, Bilaspur-Chhattisgarh - 495004, Near Tiwari Aata Chakki"	"Chhattisgarh"	""	"495004"	"India"	"+(<span class="mobilesv icon-wxl"></span><span class="mobilesv icon-nmg"></span>)-<span class="mobilesv icon-wxl"></span><span class="mobilesv icon-hgd"></span><span class="mobilesv icon-wxl"></span><span class="mobilesv icon-lkf"></span><span class="mobilesv icon-nmg"></span><span class="mobilesv icon-oqp"></span><span class="mobilesv icon-hgd"></span><span class="mobilesv icon-wxl"></span><span class="mobilesv icon-wxl"></span><span class="mobilesv icon-yzm"></span>
		"	""	""	""	""	"https://www.justdial.com/Bilaspur-Chhattisgarh/EveS-Angel-Beauty-Clinic-Spa-Near-Tiwari-Aata-Chakki-Vidya-Nagar/9999P7752-7752-171206021025-K2W7_BZDET?xid=QmlsYXNwdXItQ2hoYXR0aXNnYXJoIEJlYXV0eSBTcGFz"
"  Beauty Spas"	"Ikonic Beauty Clinic & Spa"	"Sindhi Collony, Jarhabhata, Bilaspur-Chhattisgarh - 495004, Mandir Chowk"	"Chhattisgarh"	""	"495004"	"India"	"+(<span class="mobilesv icon-wxl"></span><span class="mobilesv icon-nmg"></span>)-<span class="mobilesv icon-wxl"></span><span class="mobilesv icon-wxl"></span><span class="mobilesv icon-wxl"></span><span class="mobilesv icon-lkf"></span><span class="mobilesv icon-nlm"></span><span class="mobilesv icon-rqi"></span><span class="mobilesv icon-nlm"></span><span class="mobilesv icon-rqi"></span><span class="mobilesv icon-oqp"></span><span class="mobilesv icon-baa"></span>
		"	""	""	""	""	"https://www.justdial.com/Bilaspur-Chhattisgarh/Ikonic-Beauty-Clinic-Spa-Mandir-Chowk-Jarhabhata/9999P7752-7752-150709172609-W2V3_BZDET?xid=QmlsYXNwdXItQ2hoYXR0aXNnYXJoIEJlYXV0eSBTcGFz"
"  Salons"	"The Looks Unisex Salon"	"Shop No.09 Rajive Plaza, Infront Of Navbharat Press, Bilaspur H O, Bilaspur-Chhattisgarh - 495001, Jeet Talkies"	"Chhattisgarh"	""	"495001"	"India"	"+(<span class="mobilesv icon-wxl"></span><span class="mobilesv icon-nmg"></span>)-<span class="mobilesv icon-wxl"></span><span class="mobilesv icon-wxl"></span><span class="mobilesv icon-oqp"></span><span class="mobilesv icon-nlm"></span><span class="mobilesv icon-nmg"></span><span class="mobilesv icon-baa"></span><span class="mobilesv icon-wxl"></span><span class="mobilesv icon-hgd"></span><span class="mobilesv icon-nlm"></span><span class="mobilesv icon-lkf"></span>
		"	""	""	""	""	"https://www.justdial.com/Bilaspur-Chhattisgarh/The-Looks-Unisex-Salon-Jeet-Talkies-Bilaspur-H-O/9999P7752-7752-150916131358-R3J2_BZDET?xid=QmlsYXNwdXItQ2hoYXR0aXNnYXJoIEJlYXV0eSBTcGFz"
"  Beauty Spas"	"Divine Beauty Parlour & Spa"	"Nehru Nagar, Bilaspur-Chhattisgarh - 495001, Opposite Balram Talkies"	"Chhattisgarh"	""	"495001"	"India"	"+(<span class="mobilesv icon-wxl"></span><span class="mobilesv icon-nmg"></span>)-<span class="mobilesv icon-nlm"></span><span class="mobilesv icon-oqp"></span><span class="mobilesv icon-nlm"></span><span class="mobilesv icon-trs"></span><span class="mobilesv icon-rqi"></span><span class="mobilesv icon-nlm"></span><span class="mobilesv icon-rqi"></span><span class="mobilesv icon-baa"></span><span class="mobilesv icon-rqi"></span><span class="mobilesv icon-wxl"></span>
		"	""	""	""	""	"https://www.justdial.com/Bilaspur-Chhattisgarh/Divine-Beauty-Parlour-Spa-Opposite-Balram-Talkies-Nehru-Nagar/9999P7752-7752-170724131649-R5D2_BZDET?xid=QmlsYXNwdXItQ2hoYXR0aXNnYXJoIEJlYXV0eSBTcGFz"
"  Body Massage Centres"	"Luxury Salveo The Spa"	"Hotel Patricians Sector-C, Sirgitti A. S Fun (Bubble Island), Bilaspur H O, Bilaspur-Chhattisgarh - 495001, Near New Bus Stand Sirgitti"	"Chhattisgarh"	""	"495001"	"India"	"+(<span class="mobilesv icon-wxl"></span><span class="mobilesv icon-nmg"></span>)-<span class="mobilesv icon-wxl"></span><span class="mobilesv icon-yzm"></span><span class="mobilesv icon-yzm"></span><span class="mobilesv icon-trs"></span><span class="mobilesv icon-trs"></span><span class="mobilesv icon-oqp"></span><span class="mobilesv icon-trs"></span><span class="mobilesv icon-trs"></span><span class="mobilesv icon-trs"></span><span class="mobilesv icon-nmg"></span>
		"	""	""	""	""	"https://www.justdial.com/Bilaspur-Chhattisgarh/Luxury-Salveo-The-Spa-Near-New-Bus-Stand-Sirgitti-Bilaspur-H-O/9999P7752-7752-171002145553-Z1Z2_BZDET?xid=QmlsYXNwdXItQ2hoYXR0aXNnYXJoIEJlYXV0eSBTcGFz"
"  Body Massage Centres"	"Shyamkant Jaiswal"	"House No 570, Bandhvapara, Gali No 6 K 2, Bus Stand Road, Bilaspur-chhattisgarh - 495001, Sarkanda"	"chhattisgarh"	""	"495001"	"India"	""	""	""	""	""	"https://www.justdial.com/Bilaspur-Chhattisgarh/Shyamkant-Jaiswal-Sarkanda-Bus-Stand-Road/9999P7752-7752-151028211521-W7S2_BZDET?xid=QmlsYXNwdXItQ2hoYXR0aXNnYXJoIEJlYXV0eSBTcGFz"
"  Beauty Parlours"	"Paradise Beauty Collection"	"Shop Number 1, Telipara Road, Madhyanagari Chowk, Bilaspur-Chhattisgarh - 495001"	"Chhattisgarh"	""	"495001"	"India"	"+(<span class="mobilesv icon-wxl"></span><span class="mobilesv icon-nmg"></span>)-<span class="mobilesv icon-wxl"></span><span class="mobilesv icon-yzm"></span><span class="mobilesv icon-baa"></span><span class="mobilesv icon-oqp"></span><span class="mobilesv icon-rqi"></span><span class="mobilesv icon-trs"></span><span class="mobilesv icon-nlm"></span><span class="mobilesv icon-nlm"></span><span class="mobilesv icon-trs"></span><span class="mobilesv icon-trs"></span>
		"	""	""	""	""	"https://www.justdial.com/Bilaspur-Chhattisgarh/Paradise-Beauty-Collection-Madhyanagari-Chowk/9999P7752-7752-150904125258-K1T8_BZDET?xid=QmlsYXNwdXItQ2hoYXR0aXNnYXJoIEJlYXV0eSBTcGFz"
"  Salons"	"Yes Boss Salon"	"Marimai Road, Bilaspur-Chhattisgarh - 495004, Behind Of Usha Hight"	"Chhattisgarh"	""	"495004"	"India"	"+(<span class="mobilesv icon-wxl"></span><span class="mobilesv icon-nmg"></span>)-<span class="mobilesv icon-yzm"></span><span class="mobilesv icon-wxl"></span><span class="mobilesv icon-wxl"></span><span class="mobilesv icon-wxl"></span><span class="mobilesv icon-lkf"></span><span class="mobilesv icon-rqi"></span><span class="mobilesv icon-trs"></span><span class="mobilesv icon-trs"></span><span class="mobilesv icon-nmg"></span><span class="mobilesv icon-yzm"></span>
		"	""	""	""	""	"https://www.justdial.com/Bilaspur-Chhattisgarh/Yes-Boss-Salon-Behind-Of-Usha-Hight/9999P7752-7752-181203124439-J7B2_BZDET?xid=QmlsYXNwdXItQ2hoYXR0aXNnYXJoIEJlYXV0eSBTcGFz"
"  Body Massage Centres"	"Tamanna Ladies & Gents Beau.."	"Dg 19-20, Rajiv Plaza, Old Bus Stand, Telephone Exchange Road, Bilaspur-chhattisgarh - 495001, Near Axis Bank Oppo. Rajiv Plaza"	"chhattisgarh"	""	"495001"	"India"	"+(<span class="mobilesv icon-wxl"></span><span class="mobilesv icon-nmg"></span>)-<span class="mobilesv icon-hgd"></span><span class="mobilesv icon-nlm"></span><span class="mobilesv icon-trs"></span><span class="mobilesv icon-oqp"></span><span class="mobilesv icon-wxl"></span><span class="mobilesv icon-trs"></span><span class="mobilesv icon-rqi"></span><span class="mobilesv icon-hgd"></span><span class="mobilesv icon-baa"></span><span class="mobilesv icon-baa"></span>
		"	""	""	""	""	"https://www.justdial.com/Bilaspur-Chhattisgarh/Tamanna-Ladies-Gents-Beauty-Parlour-Near-Axis-Bank-Oppo-Rajiv-Plaza-Telephone-Exchange-Road/9999P7752-7752-170128160012-R7A9_BZDET?xid=QmlsYXNwdXItQ2hoYXR0aXNnYXJoIEJlYXV0eSBTcGFz"
"  Beauty Parlours"	"RIZZ The Complete Women Sal.."	"GF -6 Satya Sai Plaza, Shiv Talkies Road, Bilaspur H O, Bilaspur-Chhattisgarh - 495001, Near Old Bus Stand"	"Chhattisgarh"	""	"495001"	"India"	"+(<span class="mobilesv icon-wxl"></span><span class="mobilesv icon-nmg"></span>)-<span class="mobilesv icon-wxl"></span><span class="mobilesv icon-lkf"></span><span class="mobilesv icon-trs"></span><span class="mobilesv icon-trs"></span><span class="mobilesv icon-yzm"></span><span class="mobilesv icon-trs"></span><span class="mobilesv icon-lkf"></span><span class="mobilesv icon-yzm"></span><span class="mobilesv icon-baa"></span><span class="mobilesv icon-lkf"></span>
		"	""	""	""	""	"https://www.justdial.com/Bilaspur-Chhattisgarh/RIZZ-The-Complete-Women-Salon-Near-Old-Bus-Stand-Bilaspur-H-O/9999P7752-7752-171027125622-L3G1_BZDET?xid=QmlsYXNwdXItQ2hoYXR0aXNnYXJoIEJlYXV0eSBTcGFz"
"  Beauty Spas"	"Bello The Family Salon"	"Chandrika Hotel, Satyam Chowk Road, Masanganj, Bilaspur-Chhattisgarh - 495001, Near Imlipara Road"	"Chhattisgarh"	""	"495001"	"India"	"+(<span class="mobilesv icon-wxl"></span><span class="mobilesv icon-nmg"></span>)-<span class="mobilesv icon-hgd"></span><span class="mobilesv icon-yzm"></span><span class="mobilesv icon-yzm"></span><span class="mobilesv icon-trs"></span><span class="mobilesv icon-yzm"></span><span class="mobilesv icon-yzm"></span><span class="mobilesv icon-baa"></span><span class="mobilesv icon-oqp"></span><span class="mobilesv icon-hgd"></span><span class="mobilesv icon-oqp"></span>
		"	""	""	""	""	"https://www.justdial.com/Bilaspur-Chhattisgarh/Bello-The-Family-Salon-Near-Imlipara-Road-Masanganj/9999P7752-7752-170915145958-K6X2_BZDET?xid=QmlsYXNwdXItQ2hoYXR0aXNnYXJoIEJlYXV0eSBTcGFz"
"  Body Massage Centres"	"Flavio Spa"	"AS Fun Bubble Irland, Sirgitti, Bilaspur-Chhattisgarh - 495004, Near to New Bus Stand"	"Chhattisgarh"	""	"495004"	"India"	"+(<span class="mobilesv icon-wxl"></span><span class="mobilesv icon-nmg"></span>)-<span class="mobilesv icon-wxl"></span><span class="mobilesv icon-nmg"></span><span class="mobilesv icon-nmg"></span><span class="mobilesv icon-hgd"></span><span class="mobilesv icon-nlm"></span><span class="mobilesv icon-wxl"></span><span class="mobilesv icon-hgd"></span><span class="mobilesv icon-baa"></span><span class="mobilesv icon-wxl"></span><span class="mobilesv icon-yzm"></span>
		"	""	""	""	""	"https://www.justdial.com/Bilaspur-Chhattisgarh/Flavio-Spa-Near-to-New-Bus-Stand-Sirgitti/9999P7752-7752-181004125717-A4F1_BZDET?xid=QmlsYXNwdXItQ2hoYXR0aXNnYXJoIEJlYXV0eSBTcGFz"
"  Beauty Spas"	"Sun Shine Beauty Parlour"	"Muktidham Chowk, Sarkanda, Bilaspur-Chhattisgarh - 495006, Beside Sharda Gas Agencies,Muktidham"	"Chhattisgarh"	""	"495006"	"India"	"+(<span class="mobilesv icon-wxl"></span><span class="mobilesv icon-nmg"></span>)-<span class="mobilesv icon-yzm"></span><span class="mobilesv icon-hgd"></span><span class="mobilesv icon-oqp"></span><span class="mobilesv icon-hgd"></span><span class="mobilesv icon-baa"></span><span class="mobilesv icon-wxl"></span><span class="mobilesv icon-wxl"></span><span class="mobilesv icon-rqi"></span><span class="mobilesv icon-rqi"></span><span class="mobilesv icon-lkf"></span>
		"	""	""	""	""	"https://www.justdial.com/Bilaspur-Chhattisgarh/Sun-Shine-Beauty-Parlour-Beside-Sharda-Gas-Agencies-Muktidham-Sarkanda/9999P7752-7752-180802152923-T6Y7_BZDET?xid=QmlsYXNwdXItQ2hoYXR0aXNnYXJoIEJlYXV0eSBTcGFz"
"  Beauty Spas"	"Chhaya Beauty Salon & Spa T.."	"Main Road, Rajkishor Nagar, Bilaspur-Chhattisgarh - 495001, Near SBI Bank"	"Chhattisgarh"	""	"495001"	"India"	"+(<span class="mobilesv icon-wxl"></span><span class="mobilesv icon-nmg"></span>)-<span class="mobilesv icon-wxl"></span><span class="mobilesv icon-nmg"></span><span class="mobilesv icon-lkf"></span><span class="mobilesv icon-nmg"></span><span class="mobilesv icon-hgd"></span><span class="mobilesv icon-hgd"></span><span class="mobilesv icon-baa"></span><span class="mobilesv icon-baa"></span><span class="mobilesv icon-hgd"></span><span class="mobilesv icon-hgd"></span>
		"	""	""	""	""	"https://www.justdial.com/Bilaspur-Chhattisgarh/Chhaya-Beauty-Salon-Spa-Training-Center-Near-SBI-Bank-Rajkishor-Nagar/9999P7752-7752-190628145523-F3K5_BZDET?xid=QmlsYXNwdXItQ2hoYXR0aXNnYXJoIEJlYXV0eSBTcGFz"
"  Beauty Spas"	"Beauty Zone"	"Main Road, Tarbahar Chowk, Bilaspur-Chhattisgarh - 495004"	"Chhattisgarh"	""	"495004"	"India"	"+(<span class="mobilesv icon-wxl"></span><span class="mobilesv icon-nmg"></span>)-<span class="mobilesv icon-hgd"></span><span class="mobilesv icon-trs"></span><span class="mobilesv icon-hgd"></span><span class="mobilesv icon-baa"></span><span class="mobilesv icon-trs"></span><span class="mobilesv icon-trs"></span><span class="mobilesv icon-yzm"></span><span class="mobilesv icon-trs"></span><span class="mobilesv icon-hgd"></span><span class="mobilesv icon-baa"></span>
		"	""	""	""	""	"https://www.justdial.com/Bilaspur-Chhattisgarh/Beauty-Zone-Tarbahar-Chowk/9999P7752-7752-180629192618-Q1I8_BZDET?xid=QmlsYXNwdXItQ2hoYXR0aXNnYXJoIEJlYXV0eSBTcGFz"
"  Beauty Spas"	"Jiya Beauty Parlour"	"Rajkishor Nagar, Bilaspur-Chhattisgarh - 495001, Near Ek Nagar"	"Chhattisgarh"	""	"495001"	"India"	"+(<span class="mobilesv icon-wxl"></span><span class="mobilesv icon-nmg"></span>)-<span class="mobilesv icon-nlm"></span><span class="mobilesv icon-oqp"></span><span class="mobilesv icon-nlm"></span><span class="mobilesv icon-yzm"></span><span class="mobilesv icon-trs"></span><span class="mobilesv icon-hgd"></span><span class="mobilesv icon-wxl"></span><span class="mobilesv icon-wxl"></span><span class="mobilesv icon-nlm"></span><span class="mobilesv icon-nlm"></span>
		"	""	""	""	""	"https://www.justdial.com/Bilaspur-Chhattisgarh/Jiya-Beauty-Parlour-Near-Ek-Nagar-Rajkishor-Nagar/9999P7752-7752-191019183906-W5V9_BZDET?xid=QmlsYXNwdXItQ2hoYXR0aXNnYXJoIEJlYXV0eSBTcGFz"
"  Beauty Spas  "	"Pisces Fish Spa"	"Talapara, Bilaspur, Vaishali Nagar, Bilaspur-Chhattisgarh - 495004"	"Chhattisgarh"	""	"495004"	"India"	"+(<span class="mobilesv icon-wxl"></span><span class="mobilesv icon-nmg"></span>)-<span class="mobilesv icon-wxl"></span><span class="mobilesv icon-nlm"></span><span class="mobilesv icon-lkf"></span><span class="mobilesv icon-trs"></span><span class="mobilesv icon-nmg"></span><span class="mobilesv icon-nmg"></span><span class="mobilesv icon-nmg"></span><span class="mobilesv icon-hgd"></span><span class="mobilesv icon-yzm"></span><span class="mobilesv icon-yzm"></span>
		"	""	""	""	""	"https://www.justdial.com/Bilaspur-Chhattisgarh/Pisces-Fish-Spa-Vaishali-Nagar/9999P7752-7752-180101205224-R4T1_BZDET?xid=QmlsYXNwdXItQ2hoYXR0aXNnYXJoIEJlYXV0eSBTcGFz"
"  Salons"	"Yes Boss Salon"	"Marimai Road, Bilaspur-Chhattisgarh - 495004, Behind Of Usha Hight"	"Chhattisgarh"	""	"495004"	"India"	"+(<span class="mobilesv icon-jie"></span><span class="mobilesv icon-fde"></span>)-0<span class="mobilesv icon-jie"></span><span class="mobilesv icon-jie"></span><span class="mobilesv icon-jie"></span><span class="mobilesv icon-wxl"></span><span class="mobilesv icon-trs"></span><span class="mobilesv icon-poh"></span><span class="mobilesv icon-poh"></span><span class="mobilesv icon-fde"></span>0
		"	""	""	""	""	"https://www.justdial.com/Bilaspur-Chhattisgarh/Yes-Boss-Salon-Behind-Of-Usha-Hight/9999P7752-7752-181203124439-J7B2_BZDET?xid=QmlsYXNwdXItQ2hoYXR0aXNnYXJoIEJlYXV0eSBTcGFz"
"  Body Massage Centres"	"Tamanna Ladies & Gents Beau.."	"Dg 19-20, Rajiv Plaza, Old Bus Stand, Telephone Exchange Road, Bilaspur-chhattisgarh - 495001, Near Axis Bank Oppo. Rajiv Plaza"	"chhattisgarh"	""	"495001"	"India"	"+(<span class="mobilesv icon-jie"></span><span class="mobilesv icon-fde"></span>)-<span class="mobilesv icon-vuk"></span><span class="mobilesv icon-hgd"></span><span class="mobilesv icon-poh"></span><span class="mobilesv icon-lkf"></span><span class="mobilesv icon-jie"></span><span class="mobilesv icon-poh"></span><span class="mobilesv icon-trs"></span><span class="mobilesv icon-vuk"></span><span class="mobilesv icon-rqi"></span><span class="mobilesv icon-rqi"></span>
		"	""	""	""	""	"https://www.justdial.com/Bilaspur-Chhattisgarh/Tamanna-Ladies-Gents-Beauty-Parlour-Near-Axis-Bank-Oppo-Rajiv-Plaza-Telephone-Exchange-Road/9999P7752-7752-170128160012-R7A9_BZDET?xid=QmlsYXNwdXItQ2hoYXR0aXNnYXJoIEJlYXV0eSBTcGFz"
"  Beauty Parlours"	"RIZZ The Complete Women Sal.."	"GF -6 Satya Sai Plaza, Shiv Talkies Road, Bilaspur H O, Bilaspur-Chhattisgarh - 495001, Near Old Bus Stand"	"Chhattisgarh"	""	"495001"	"India"	"+(<span class="mobilesv icon-jie"></span><span class="mobilesv icon-fde"></span>)-<span class="mobilesv icon-jie"></span><span class="mobilesv icon-wxl"></span><span class="mobilesv icon-poh"></span><span class="mobilesv icon-poh"></span>0<span class="mobilesv icon-poh"></span><span class="mobilesv icon-wxl"></span>0<span class="mobilesv icon-rqi"></span><span class="mobilesv icon-wxl"></span>
		"	""	""	""	""	"https://www.justdial.com/Bilaspur-Chhattisgarh/RIZZ-The-Complete-Women-Salon-Near-Old-Bus-Stand-Bilaspur-H-O/9999P7752-7752-171027125622-L3G1_BZDET?xid=QmlsYXNwdXItQ2hoYXR0aXNnYXJoIEJlYXV0eSBTcGFz"
"  Beauty Spas"	"Bello The Family Salon"	"Chandrika Hotel, Satyam Chowk Road, Masanganj, Bilaspur-Chhattisgarh - 495001, Near Imlipara Road"	"Chhattisgarh"	""	"495001"	"India"	"+(<span class="mobilesv icon-jie"></span><span class="mobilesv icon-fde"></span>)-<span class="mobilesv icon-vuk"></span>00<span class="mobilesv icon-poh"></span>00<span class="mobilesv icon-rqi"></span><span class="mobilesv icon-lkf"></span><span class="mobilesv icon-vuk"></span><span class="mobilesv icon-lkf"></span>
		"	""	""	""	""	"https://www.justdial.com/Bilaspur-Chhattisgarh/Bello-The-Family-Salon-Near-Imlipara-Road-Masanganj/9999P7752-7752-170915145958-K6X2_BZDET?xid=QmlsYXNwdXItQ2hoYXR0aXNnYXJoIEJlYXV0eSBTcGFz"
"  Body Massage Centres"	"Flavio Spa"	"AS Fun Bubble Irland, Sirgitti, Bilaspur-Chhattisgarh - 495004, Near to New Bus Stand"	"Chhattisgarh"	""	"495004"	"India"	"+(<span class="mobilesv icon-jie"></span><span class="mobilesv icon-fde"></span>)-<span class="mobilesv icon-jie"></span><span class="mobilesv icon-fde"></span><span class="mobilesv icon-fde"></span><span class="mobilesv icon-vuk"></span><span class="mobilesv icon-hgd"></span><span class="mobilesv icon-jie"></span><span class="mobilesv icon-vuk"></span><span class="mobilesv icon-rqi"></span><span class="mobilesv icon-jie"></span>0
		"	""	""	""	""	"https://www.justdial.com/Bilaspur-Chhattisgarh/Flavio-Spa-Near-to-New-Bus-Stand-Sirgitti/9999P7752-7752-181004125717-A4F1_BZDET?xid=QmlsYXNwdXItQ2hoYXR0aXNnYXJoIEJlYXV0eSBTcGFz"
"  Beauty Spas"	"Sun Shine Beauty Parlour"	"Muktidham Chowk, Sarkanda, Bilaspur-Chhattisgarh - 495006, Beside Sharda Gas Agencies,Muktidham"	"Chhattisgarh"	""	"495006"	"India"	"+(<span class="mobilesv icon-jie"></span><span class="mobilesv icon-fde"></span>)-0<span class="mobilesv icon-vuk"></span><span class="mobilesv icon-lkf"></span><span class="mobilesv icon-vuk"></span><span class="mobilesv icon-rqi"></span><span class="mobilesv icon-jie"></span><span class="mobilesv icon-jie"></span><span class="mobilesv icon-trs"></span><span class="mobilesv icon-trs"></span><span class="mobilesv icon-wxl"></span>
		"	""	""	""	""	"https://www.justdial.com/Bilaspur-Chhattisgarh/Sun-Shine-Beauty-Parlour-Beside-Sharda-Gas-Agencies-Muktidham-Sarkanda/9999P7752-7752-180802152923-T6Y7_BZDET?xid=QmlsYXNwdXItQ2hoYXR0aXNnYXJoIEJlYXV0eSBTcGFz"
"  Beauty Spas"	"Chhaya Beauty Salon & Spa T.."	"Main Road, Rajkishor Nagar, Bilaspur-Chhattisgarh - 495001, Near SBI Bank"	"Chhattisgarh"	""	"495001"	"India"	"+(<span class="mobilesv icon-jie"></span><span class="mobilesv icon-fde"></span>)-<span class="mobilesv icon-jie"></span><span class="mobilesv icon-fde"></span><span class="mobilesv icon-wxl"></span><span class="mobilesv icon-fde"></span><span class="mobilesv icon-vuk"></span><span class="mobilesv icon-vuk"></span><span class="mobilesv icon-rqi"></span><span class="mobilesv icon-rqi"></span><span class="mobilesv icon-vuk"></span><span class="mobilesv icon-vuk"></span>
		"	""	""	""	""	"https://www.justdial.com/Bilaspur-Chhattisgarh/Chhaya-Beauty-Salon-Spa-Training-Center-Near-SBI-Bank-Rajkishor-Nagar/9999P7752-7752-190628145523-F3K5_BZDET?xid=QmlsYXNwdXItQ2hoYXR0aXNnYXJoIEJlYXV0eSBTcGFz"
"  Beauty Spas"	"Beauty Zone"	"Main Road, Tarbahar Chowk, Bilaspur-Chhattisgarh - 495004"	"Chhattisgarh"	""	"495004"	"India"	"+(<span class="mobilesv icon-jie"></span><span class="mobilesv icon-fde"></span>)-<span class="mobilesv icon-vuk"></span><span class="mobilesv icon-poh"></span><span class="mobilesv icon-vuk"></span><span class="mobilesv icon-rqi"></span><span class="mobilesv icon-poh"></span><span class="mobilesv icon-poh"></span>0<span class="mobilesv icon-poh"></span><span class="mobilesv icon-vuk"></span><span class="mobilesv icon-rqi"></span>
		"	""	""	""	""	"https://www.justdial.com/Bilaspur-Chhattisgarh/Beauty-Zone-Tarbahar-Chowk/9999P7752-7752-180629192618-Q1I8_BZDET?xid=QmlsYXNwdXItQ2hoYXR0aXNnYXJoIEJlYXV0eSBTcGFz"
"  Beauty Spas"	"Jiya Beauty Parlour"	"Rajkishor Nagar, Bilaspur-Chhattisgarh - 495001, Near Ek Nagar"	"Chhattisgarh"	""	"495001"	"India"	"+(<span class="mobilesv icon-jie"></span><span class="mobilesv icon-fde"></span>)-<span class="mobilesv icon-hgd"></span><span class="mobilesv icon-lkf"></span><span class="mobilesv icon-hgd"></span>0<span class="mobilesv icon-poh"></span><span class="mobilesv icon-vuk"></span><span class="mobilesv icon-jie"></span><span class="mobilesv icon-jie"></span><span class="mobilesv icon-hgd"></span><span class="mobilesv icon-hgd"></span>
		"	""	""	""	""	"https://www.justdial.com/Bilaspur-Chhattisgarh/Jiya-Beauty-Parlour-Near-Ek-Nagar-Rajkishor-Nagar/9999P7752-7752-191019183906-W5V9_BZDET?xid=QmlsYXNwdXItQ2hoYXR0aXNnYXJoIEJlYXV0eSBTcGFz"
"  Beauty Spas  "	"Pisces Fish Spa"	"Talapara, Bilaspur, Vaishali Nagar, Bilaspur-Chhattisgarh - 495004"	"Chhattisgarh"	""	"495004"	"India"	"+(<span class="mobilesv icon-jie"></span><span class="mobilesv icon-fde"></span>)-<span class="mobilesv icon-jie"></span><span class="mobilesv icon-hgd"></span><span class="mobilesv icon-wxl"></span><span class="mobilesv icon-poh"></span><span class="mobilesv icon-fde"></span><span class="mobilesv icon-fde"></span><span class="mobilesv icon-fde"></span><span class="mobilesv icon-vuk"></span>00
		"	""	""	""	""	"https://www.justdial.com/Bilaspur-Chhattisgarh/Pisces-Fish-Spa-Vaishali-Nagar/9999P7752-7752-180101205224-R4T1_BZDET?xid=QmlsYXNwdXItQ2hoYXR0aXNnYXJoIEJlYXV0eSBTcGFz"
"  Beauty Parlours"	"Makeover Female Salon And A.."	"Vidya Nagar, Bilaspur-Chhattisgarh - 495004, Near Gayatri Mandir Square"	"Chhattisgarh"	""	"495004"	"India"	"+(<span class="mobilesv icon-jie"></span><span class="mobilesv icon-fde"></span>)-<span class="mobilesv icon-jie"></span><span class="mobilesv icon-jie"></span><span class="mobilesv icon-poh"></span>00<span class="mobilesv icon-trs"></span><span class="mobilesv icon-jie"></span><span class="mobilesv icon-wxl"></span>0<span class="mobilesv icon-wxl"></span>
		"	""	""	""	""	"https://www.justdial.com/Bilaspur-Chhattisgarh/Makeover-Female-Salon-And-Academy-Near-Gayatri-Mandir-Square-Vidya-Nagar/9999P7752-7752-170901203650-H8A2_BZDET?xid=QmlsYXNwdXItQ2hoYXR0aXNnYXJoIEJlYXV0eSBTcGFz"
"  Beauty Parlours"	"Vama Beauty Spa And Skin Ca.."	"27 Kholi, Bilaspur H O, Bilaspur-Chhattisgarh - 495001, Near Gurudwra"	"Chhattisgarh"	""	"495001"	"India"	"+(<span class="mobilesv icon-jie"></span><span class="mobilesv icon-fde"></span>)-<span class="mobilesv icon-jie"></span><span class="mobilesv icon-jie"></span><span class="mobilesv icon-jie"></span><span class="mobilesv icon-wxl"></span><span class="mobilesv icon-trs"></span>0<span class="mobilesv icon-rqi"></span><span class="mobilesv icon-lkf"></span><span class="mobilesv icon-rqi"></span><span class="mobilesv icon-wxl"></span>
		"	""	""	""	""	"https://www.justdial.com/Bilaspur-Chhattisgarh/Vama-Beauty-Spa-And-Skin-Care-Near-Gurudwra-Bilaspur-H-O/9999P7752-7752-180817081704-I4G7_BZDET?xid=QmlsYXNwdXItQ2hoYXR0aXNnYXJoIEJlYXV0eSBTcGFz"
"  Beauty Spas"	"Moon Beauty Parlour"	"Chakarbhata Camp, bilaspur-chhattisgarh - 495220, Near Main Road"	"chhattisgarh"	""	"495220"	"India"	"+(<span class="mobilesv icon-jie"></span><span class="mobilesv icon-fde"></span>)-<span class="mobilesv icon-vuk"></span><span class="mobilesv icon-vuk"></span><span class="mobilesv icon-fde"></span><span class="mobilesv icon-vuk"></span><span class="mobilesv icon-vuk"></span><span class="mobilesv icon-fde"></span><span class="mobilesv icon-fde"></span><span class="mobilesv icon-jie"></span><span class="mobilesv icon-wxl"></span><span class="mobilesv icon-jie"></span>
		"	""	""	""	""	"https://www.justdial.com/Bilaspur-Chhattisgarh/Moon-Beauty-Parlour-Near-Main-Road-Chakarbhata-Camp/9999P7752-7752-191024143933-A9N4_BZDET?xid=QmlsYXNwdXItQ2hoYXR0aXNnYXJoIEJlYXV0eSBTcGFz"
"  Salons"	"Juice Salon"	"Mangla, Bilaspur-Chhattisgarh - 495001, Mangla Chowk, Opposite Shree Krishna Hospital"	"Chhattisgarh"	""	"495001"	"India"	"+(<span class="mobilesv icon-jie"></span><span class="mobilesv icon-fde"></span>)-<span class="mobilesv icon-poh"></span>00<span class="mobilesv icon-rqi"></span><span class="mobilesv icon-lkf"></span>-<span class="mobilesv icon-trs"></span><span class="mobilesv icon-wxl"></span><span class="mobilesv icon-trs"></span><span class="mobilesv icon-wxl"></span>0<span class="mobilesv icon-hgd"></span>
		"	""	""	""	""	"https://www.justdial.com/Bilaspur-Chhattisgarh/Juice-Salon-Mangla-Chowk-Opposite-Shree-Krishna-Hospital-Mangla/9999P7752-7752-210619122624-H1A4_BZDET?xid=QmlsYXNwdXItQ2hoYXR0aXNnYXJoIEJlYXV0eSBTcGFz"
"  Beauty Spas"	"Glossy looks"	"Madhyanagari Chowk, Bilaspur-Chhattisgarh - 495001, Near Juni Line"	"Chhattisgarh"	""	"495001"	"India"	"+(<span class="mobilesv icon-jie"></span><span class="mobilesv icon-fde"></span>)-<span class="mobilesv icon-hgd"></span><span class="mobilesv icon-lkf"></span><span class="mobilesv icon-hgd"></span><span class="mobilesv icon-wxl"></span><span class="mobilesv icon-lkf"></span><span class="mobilesv icon-lkf"></span>0<span class="mobilesv icon-vuk"></span><span class="mobilesv icon-poh"></span><span class="mobilesv icon-rqi"></span>
		"	""	""	""	""	"https://www.justdial.com/Bilaspur-Chhattisgarh/Glossy-looks-Near-Juni-Line-Madhyanagari-Chowk/9999P7752-7752-191202145711-H3Y6_BZDET?xid=QmlsYXNwdXItQ2hoYXR0aXNnYXJoIEJlYXV0eSBTcGFz"
"  Body Massage Centres"	"Hair Story The Saloon"	"Purana Bus Stand Road, Bilaspur, Bus Stand Road, Bilaspur-Chhattisgarh - 495001, In Front Of Sanjay Bag House"	"Chhattisgarh"	""	"495001"	"India"	"+(<span class="mobilesv icon-jie"></span><span class="mobilesv icon-fde"></span>)-<span class="mobilesv icon-vuk"></span><span class="mobilesv icon-lkf"></span><span class="mobilesv icon-wxl"></span><span class="mobilesv icon-trs"></span><span class="mobilesv icon-poh"></span><span class="mobilesv icon-trs"></span><span class="mobilesv icon-trs"></span><span class="mobilesv icon-vuk"></span><span class="mobilesv icon-hgd"></span><span class="mobilesv icon-hgd"></span>
		"	""	""	""	""	"https://www.justdial.com/Bilaspur-Chhattisgarh/Hair-Story-The-Saloon-In-Front-Of-Sanjay-Bag-House-Bus-Stand-Road/9999P7752-7752-171001120156-X2X8_BZDET?xid=QmlsYXNwdXItQ2hoYXR0aXNnYXJoIEJlYXV0eSBTcGFz"
"  Beauty Spas"	"Narayan Hair And Beauty The.."	"Front Of Icici Bank, Torwa, Bilaspur-Chhattisgarh - 495004"	"Chhattisgarh"	""	"495004"	"India"	"+(<span class="mobilesv icon-jie"></span><span class="mobilesv icon-fde"></span>)-<span class="mobilesv icon-jie"></span><span class="mobilesv icon-jie"></span>00<span class="mobilesv icon-fde"></span>0<span class="mobilesv icon-poh"></span>0<span class="mobilesv icon-rqi"></span><span class="mobilesv icon-rqi"></span>
		"	""	""	""	""	"https://www.justdial.com/Bilaspur-Chhattisgarh/Narayan-Hair-And-Beauty-The-Saloon-Torwa/9999P7752-7752-190408121710-W3F7_BZDET?xid=QmlsYXNwdXItQ2hoYXR0aXNnYXJoIEJlYXV0eSBTcGFz"
"  Salons"	"Meenakshis Salon & Academy"	"Link Road, Link Road, Bilaspur-Chhattisgarh - 495001"	"Chhattisgarh"	""	"495001"	"India"	"+(<span class="mobilesv icon-jie"></span><span class="mobilesv icon-fde"></span>)-00<span class="mobilesv icon-rqi"></span><span class="mobilesv icon-lkf"></span>-<span class="mobilesv icon-trs"></span><span class="mobilesv icon-lkf"></span>0<span class="mobilesv icon-lkf"></span><span class="mobilesv icon-trs"></span><span class="mobilesv icon-lkf"></span>
		"	""	""	""	""	"https://www.justdial.com/Bilaspur-Chhattisgarh/Meenakshis-Salon-Academy-Link-Road/9999P7752-7752-180209215307-M8W4_BZDET?xid=QmlsYXNwdXItQ2hoYXR0aXNnYXJoIEJlYXV0eSBTcGFz"
"  Beauty Spas"	"Glamours Nails & Beauty Lou.."	"Magarpara Chowk, Usha Lata Complex, Bilaspur, Masanganj, Bilaspur-Chhattisgarh - 495001, Infornt Kims Hospital"	"Chhattisgarh"	""	"495001"	"India"	"+(<span class="mobilesv icon-jie"></span><span class="mobilesv icon-fde"></span>)-0<span class="mobilesv icon-rqi"></span><span class="mobilesv icon-poh"></span><span class="mobilesv icon-jie"></span><span class="mobilesv icon-hgd"></span>0<span class="mobilesv icon-vuk"></span><span class="mobilesv icon-vuk"></span>0<span class="mobilesv icon-jie"></span>
		"	""	""	""	""	"https://www.justdial.com/Bilaspur-Chhattisgarh/Glamours-Nails-Beauty-Lounge-Infornt-Kims-Hospital-Masanganj/9999P7752-7752-180904001411-E6V1_BZDET?xid=QmlsYXNwdXItQ2hoYXR0aXNnYXJoIEJlYXV0eSBTcGFz"
"  Body Massage Centres"	"Krishu Mens Parlour"	"Mungeli Road, Mungeli Naka, Bilaspur-Chhattisgarh - 495001, Near Dau Medical"	"Chhattisgarh"	""	"495001"	"India"	"+(<span class="mobilesv icon-jie"></span><span class="mobilesv icon-fde"></span>)-<span class="mobilesv icon-jie"></span><span class="mobilesv icon-vuk"></span><span class="mobilesv icon-lkf"></span>0<span class="mobilesv icon-trs"></span><span class="mobilesv icon-hgd"></span><span class="mobilesv icon-vuk"></span><span class="mobilesv icon-rqi"></span><span class="mobilesv icon-poh"></span>0
		"	""	""	""	""	"https://www.justdial.com/Bilaspur-Chhattisgarh/Krishu-Mens-Parlour-Near-Dau-Medical-Mungeli-Naka/9999P7752-7752-190308133056-K8X5_BZDET?xid=QmlsYXNwdXItQ2hoYXR0aXNnYXJoIEJlYXV0eSBTcGFz"
"  Beauty Parlours"	"Makeover Female Salon And A.."	"Vidya Nagar, Bilaspur-Chhattisgarh - 495004, Near Gayatri Mandir Square"	"Chhattisgarh"	""	"495004"	"India"	"+(<span class="mobilesv icon-oqp"></span><span class="mobilesv icon-baa"></span>)-<span class="mobilesv icon-oqp"></span><span class="mobilesv icon-oqp"></span><span class="mobilesv icon-wyx"></span><span class="mobilesv icon-vuk"></span><span class="mobilesv icon-vuk"></span><span class="mobilesv icon-nlm"></span><span class="mobilesv icon-oqp"></span><span class="mobilesv icon-jie"></span><span class="mobilesv icon-vuk"></span><span class="mobilesv icon-jie"></span>
		"	""	""	""	""	"https://www.justdial.com/Bilaspur-Chhattisgarh/Makeover-Female-Salon-And-Academy-Near-Gayatri-Mandir-Square-Vidya-Nagar/9999P7752-7752-170901203650-H8A2_BZDET?xid=QmlsYXNwdXItQ2hoYXR0aXNnYXJoIEJlYXV0eSBTcGFz"
"  Beauty Parlours"	"Vama Beauty Spa And Skin Ca.."	"27 Kholi, Bilaspur H O, Bilaspur-Chhattisgarh - 495001, Near Gurudwra"	"Chhattisgarh"	""	"495001"	"India"	"+(<span class="mobilesv icon-oqp"></span><span class="mobilesv icon-baa"></span>)-<span class="mobilesv icon-oqp"></span><span class="mobilesv icon-oqp"></span><span class="mobilesv icon-oqp"></span><span class="mobilesv icon-jie"></span><span class="mobilesv icon-nlm"></span><span class="mobilesv icon-vuk"></span><span class="mobilesv icon-lkf"></span><span class="mobilesv icon-ikj"></span><span class="mobilesv icon-lkf"></span><span class="mobilesv icon-jie"></span>
		"	""	""	""	""	"https://www.justdial.com/Bilaspur-Chhattisgarh/Vama-Beauty-Spa-And-Skin-Care-Near-Gurudwra-Bilaspur-H-O/9999P7752-7752-180817081704-I4G7_BZDET?xid=QmlsYXNwdXItQ2hoYXR0aXNnYXJoIEJlYXV0eSBTcGFz"
"  Beauty Spas"	"Moon Beauty Parlour"	"Chakarbhata Camp, bilaspur-chhattisgarh - 495220, Near Main Road"	"chhattisgarh"	""	"495220"	"India"	"+(<span class="mobilesv icon-oqp"></span><span class="mobilesv icon-baa"></span>)-<span class="mobilesv icon-nmg"></span><span class="mobilesv icon-nmg"></span><span class="mobilesv icon-baa"></span><span class="mobilesv icon-nmg"></span><span class="mobilesv icon-nmg"></span><span class="mobilesv icon-baa"></span><span class="mobilesv icon-baa"></span><span class="mobilesv icon-oqp"></span><span class="mobilesv icon-jie"></span><span class="mobilesv icon-oqp"></span>
		"	""	""	""	""	"https://www.justdial.com/Bilaspur-Chhattisgarh/Moon-Beauty-Parlour-Near-Main-Road-Chakarbhata-Camp/9999P7752-7752-191024143933-A9N4_BZDET?xid=QmlsYXNwdXItQ2hoYXR0aXNnYXJoIEJlYXV0eSBTcGFz"
"  Salons"	"Juice Salon"	"Mangla, Bilaspur-Chhattisgarh - 495001, Mangla Chowk, Opposite Shree Krishna Hospital"	"Chhattisgarh"	""	"495001"	"India"	"+(<span class="mobilesv icon-oqp"></span><span class="mobilesv icon-baa"></span>)-<span class="mobilesv icon-wyx"></span><span class="mobilesv icon-vuk"></span><span class="mobilesv icon-vuk"></span><span class="mobilesv icon-lkf"></span><span class="mobilesv icon-ikj"></span>-<span class="mobilesv icon-nlm"></span><span class="mobilesv icon-jie"></span><span class="mobilesv icon-nlm"></span><span class="mobilesv icon-jie"></span><span class="mobilesv icon-vuk"></span>0
		"	""	""	""	""	"https://www.justdial.com/Bilaspur-Chhattisgarh/Juice-Salon-Mangla-Chowk-Opposite-Shree-Krishna-Hospital-Mangla/9999P7752-7752-210619122624-H1A4_BZDET?xid=QmlsYXNwdXItQ2hoYXR0aXNnYXJoIEJlYXV0eSBTcGFz"
"  Beauty Spas"	"Glossy looks"	"Madhyanagari Chowk, Bilaspur-Chhattisgarh - 495001, Near Juni Line"	"Chhattisgarh"	""	"495001"	"India"	"+(<span class="mobilesv icon-oqp"></span><span class="mobilesv icon-baa"></span>)-0<span class="mobilesv icon-ikj"></span>0<span class="mobilesv icon-jie"></span><span class="mobilesv icon-ikj"></span><span class="mobilesv icon-ikj"></span><span class="mobilesv icon-vuk"></span><span class="mobilesv icon-nmg"></span><span class="mobilesv icon-wyx"></span><span class="mobilesv icon-lkf"></span>
		"	""	""	""	""	"https://www.justdial.com/Bilaspur-Chhattisgarh/Glossy-looks-Near-Juni-Line-Madhyanagari-Chowk/9999P7752-7752-191202145711-H3Y6_BZDET?xid=QmlsYXNwdXItQ2hoYXR0aXNnYXJoIEJlYXV0eSBTcGFz"
"  Body Massage Centres"	"Hair Story The Saloon"	"Purana Bus Stand Road, Bilaspur, Bus Stand Road, Bilaspur-Chhattisgarh - 495001, In Front Of Sanjay Bag House"	"Chhattisgarh"	""	"495001"	"India"	"+(<span class="mobilesv icon-oqp"></span><span class="mobilesv icon-baa"></span>)-<span class="mobilesv icon-nmg"></span><span class="mobilesv icon-ikj"></span><span class="mobilesv icon-jie"></span><span class="mobilesv icon-nlm"></span><span class="mobilesv icon-wyx"></span><span class="mobilesv icon-nlm"></span><span class="mobilesv icon-nlm"></span><span class="mobilesv icon-nmg"></span>00
		"	""	""	""	""	"https://www.justdial.com/Bilaspur-Chhattisgarh/Hair-Story-The-Saloon-In-Front-Of-Sanjay-Bag-House-Bus-Stand-Road/9999P7752-7752-171001120156-X2X8_BZDET?xid=QmlsYXNwdXItQ2hoYXR0aXNnYXJoIEJlYXV0eSBTcGFz"
"  Beauty Spas"	"Narayan Hair And Beauty The.."	"Front Of Icici Bank, Torwa, Bilaspur-Chhattisgarh - 495004"	"Chhattisgarh"	""	"495004"	"India"	"+(<span class="mobilesv icon-oqp"></span><span class="mobilesv icon-baa"></span>)-<span class="mobilesv icon-oqp"></span><span class="mobilesv icon-oqp"></span><span class="mobilesv icon-vuk"></span><span class="mobilesv icon-vuk"></span><span class="mobilesv icon-baa"></span><span class="mobilesv icon-vuk"></span><span class="mobilesv icon-wyx"></span><span class="mobilesv icon-vuk"></span><span class="mobilesv icon-lkf"></span><span class="mobilesv icon-lkf"></span>
		"	""	""	""	""	"https://www.justdial.com/Bilaspur-Chhattisgarh/Narayan-Hair-And-Beauty-The-Saloon-Torwa/9999P7752-7752-190408121710-W3F7_BZDET?xid=QmlsYXNwdXItQ2hoYXR0aXNnYXJoIEJlYXV0eSBTcGFz"
"  Salons"	"Meenakshis Salon & Academy"	"Link Road, Link Road, Bilaspur-Chhattisgarh - 495001"	"Chhattisgarh"	""	"495001"	"India"	"+(<span class="mobilesv icon-oqp"></span><span class="mobilesv icon-baa"></span>)-<span class="mobilesv icon-vuk"></span><span class="mobilesv icon-vuk"></span><span class="mobilesv icon-lkf"></span><span class="mobilesv icon-ikj"></span>-<span class="mobilesv icon-nlm"></span><span class="mobilesv icon-ikj"></span><span class="mobilesv icon-vuk"></span><span class="mobilesv icon-ikj"></span><span class="mobilesv icon-nlm"></span><span class="mobilesv icon-ikj"></span>
		"	""	""	""	""	"https://www.justdial.com/Bilaspur-Chhattisgarh/Meenakshis-Salon-Academy-Link-Road/9999P7752-7752-180209215307-M8W4_BZDET?xid=QmlsYXNwdXItQ2hoYXR0aXNnYXJoIEJlYXV0eSBTcGFz"
"  Beauty Spas"	"Glamours Nails & Beauty Lou.."	"Magarpara Chowk, Usha Lata Complex, Bilaspur, Masanganj, Bilaspur-Chhattisgarh - 495001, Infornt Kims Hospital"	"Chhattisgarh"	""	"495001"	"India"	"+(<span class="mobilesv icon-oqp"></span><span class="mobilesv icon-baa"></span>)-<span class="mobilesv icon-vuk"></span><span class="mobilesv icon-lkf"></span><span class="mobilesv icon-wyx"></span><span class="mobilesv icon-oqp"></span>0<span class="mobilesv icon-vuk"></span><span class="mobilesv icon-nmg"></span><span class="mobilesv icon-nmg"></span><span class="mobilesv icon-vuk"></span><span class="mobilesv icon-oqp"></span>
		"	""	""	""	""	"https://www.justdial.com/Bilaspur-Chhattisgarh/Glamours-Nails-Beauty-Lounge-Infornt-Kims-Hospital-Masanganj/9999P7752-7752-180904001411-E6V1_BZDET?xid=QmlsYXNwdXItQ2hoYXR0aXNnYXJoIEJlYXV0eSBTcGFz"
"  Body Massage Centres"	"Krishu Mens Parlour"	"Mungeli Road, Mungeli Naka, Bilaspur-Chhattisgarh - 495001, Near Dau Medical"	"Chhattisgarh"	""	"495001"	"India"	"+(<span class="mobilesv icon-oqp"></span><span class="mobilesv icon-baa"></span>)-<span class="mobilesv icon-oqp"></span><span class="mobilesv icon-nmg"></span><span class="mobilesv icon-ikj"></span><span class="mobilesv icon-vuk"></span><span class="mobilesv icon-nlm"></span>0<span class="mobilesv icon-nmg"></span><span class="mobilesv icon-lkf"></span><span class="mobilesv icon-wyx"></span><span class="mobilesv icon-vuk"></span>
		"	""	""	""	""	"https://www.justdial.com/Bilaspur-Chhattisgarh/Krishu-Mens-Parlour-Near-Dau-Medical-Mungeli-Naka/9999P7752-7752-190308133056-K8X5_BZDET?xid=QmlsYXNwdXItQ2hoYXR0aXNnYXJoIEJlYXV0eSBTcGFz"
"  Beauty Spas"	"Fashion World -the Unisex S.."	"Sudha Complex, Mungeli Naka, Bilaspur-Chhattisgarh - 495001, Near Shefer School"	"Chhattisgarh"	""	"495001"	"India"	"+(<span class="mobilesv icon-oqp"></span><span class="mobilesv icon-baa"></span>)-<span class="mobilesv icon-oqp"></span><span class="mobilesv icon-wyx"></span><span class="mobilesv icon-jie"></span><span class="mobilesv icon-oqp"></span><span class="mobilesv icon-nlm"></span><span class="mobilesv icon-oqp"></span><span class="mobilesv icon-nmg"></span><span class="mobilesv icon-baa"></span><span class="mobilesv icon-oqp"></span><span class="mobilesv icon-nlm"></span>
		"	""	""	""	""	"https://www.justdial.com/Bilaspur-Chhattisgarh/Fashion-World-the-Unisex-Salon-Near-Shefer-School-Mungeli-Naka/9999P7752-7752-180226231144-R9G6_BZDET?xid=QmlsYXNwdXItQ2hoYXR0aXNnYXJoIEJlYXV0eSBTcGFz"
"  Salons"	"Narayan Mens"	"Apollo Road, Bilaspur-Chhattisgarh - 495001, Near Prabhat Chowk"	"Chhattisgarh"	""	"495001"	"India"	"+(<span class="mobilesv icon-oqp"></span><span class="mobilesv icon-baa"></span>)-<span class="mobilesv icon-vuk"></span><span class="mobilesv icon-ikj"></span><span class="mobilesv icon-ikj"></span><span class="mobilesv icon-lkf"></span><span class="mobilesv icon-oqp"></span><span class="mobilesv icon-oqp"></span><span class="mobilesv icon-nmg"></span><span class="mobilesv icon-lkf"></span><span class="mobilesv icon-jie"></span><span class="mobilesv icon-oqp"></span>
		"	""	""	""	""	"https://www.justdial.com/Bilaspur-Chhattisgarh/Narayan-Mens-Near-Prabhat-Chowk/9999P7752-7752-190607113641-D2V6_BZDET?xid=QmlsYXNwdXItQ2hoYXR0aXNnYXJoIEJlYXV0eSBTcGFz"
"  Beauty Parlours"	"Herbal Beauty parlour"	"Mopka Road, Mopka, Bilaspur-Chhattisgarh - 495006, Ravi Resort"	"Chhattisgarh"	""	"495006"	"India"	"+(<span class="mobilesv icon-oqp"></span><span class="mobilesv icon-baa"></span>)-<span class="mobilesv icon-nmg"></span><span class="mobilesv icon-oqp"></span><span class="mobilesv icon-nmg"></span><span class="mobilesv icon-ikj"></span><span class="mobilesv icon-nlm"></span><span class="mobilesv icon-wyx"></span><span class="mobilesv icon-wyx"></span><span class="mobilesv icon-lkf"></span><span class="mobilesv icon-lkf"></span><span class="mobilesv icon-ikj"></span>
		"	""	""	""	""	"https://www.justdial.com/Bilaspur-Chhattisgarh/Herbal-Beauty-parlour-Ravi-Resort-Mopka/9999P7752-7752-210722153711-V5C1_BZDET?xid=QmlsYXNwdXItQ2hoYXR0aXNnYXJoIEJlYXV0eSBTcGFz"
"  Beauty Spas"	"Ferfectcut Beauty Parlour"	"Sakri, bilaspur-chhattisgarh - 495001, Near Sakri"	"chhattisgarh"	""	"495001"	"India"	"+(<span class="mobilesv icon-oqp"></span><span class="mobilesv icon-baa"></span>)-<span class="mobilesv icon-oqp"></span><span class="mobilesv icon-baa"></span><span class="mobilesv icon-vuk"></span><span class="mobilesv icon-oqp"></span><span class="mobilesv icon-nmg"></span><span class="mobilesv icon-oqp"></span><span class="mobilesv icon-oqp"></span><span class="mobilesv icon-oqp"></span><span class="mobilesv icon-vuk"></span><span class="mobilesv icon-wyx"></span>
		"	""	""	""	""	"https://www.justdial.com/Bilaspur-Chhattisgarh/Ferfectcut-Beauty-Parlour-Near-Sakri-Sakri/9999P7752-7752-200313153022-T6W9_BZDET?xid=QmlsYXNwdXItQ2hoYXR0aXNnYXJoIEJlYXV0eSBTcGFz"
"  Beauty Parlours"	"New Fashion Big Boss"	"Purana Power House, Purana Power House, Bilaspur-Chhattisgarh - 495001, Near Power House"	"Chhattisgarh"	""	"495001"	"India"	"+(<span class="mobilesv icon-oqp"></span><span class="mobilesv icon-baa"></span>)-<span class="mobilesv icon-vuk"></span><span class="mobilesv icon-wyx"></span>0<span class="mobilesv icon-vuk"></span><span class="mobilesv icon-vuk"></span><span class="mobilesv icon-lkf"></span><span class="mobilesv icon-lkf"></span><span class="mobilesv icon-ikj"></span><span class="mobilesv icon-lkf"></span><span class="mobilesv icon-wyx"></span>
		"	""	""	""	""	"https://www.justdial.com/Bilaspur-Chhattisgarh/New-Fashion-Big-Boss-Near-Power-House-Purana-Power-House/9999P7752-7752-190722171554-T4A8_BZDET?xid=QmlsYXNwdXItQ2hoYXR0aXNnYXJoIEJlYXV0eSBTcGFz"
"  Beauty Spas  "	"Lavely Beauty Clinic & Spa"	"Near Hari Bhumi Press, Rajendra Nagar Chowk, Rajendra Nagar, Bilaspur-Chhattisgarh - 495001"	"Chhattisgarh"	""	"495001"	"India"	"+(<span class="mobilesv icon-oqp"></span><span class="mobilesv icon-baa"></span>)-<span class="mobilesv icon-oqp"></span><span class="mobilesv icon-jie"></span><span class="mobilesv icon-wyx"></span><span class="mobilesv icon-wyx"></span><span class="mobilesv icon-nlm"></span>0<span class="mobilesv icon-oqp"></span><span class="mobilesv icon-jie"></span><span class="mobilesv icon-lkf"></span><span class="mobilesv icon-lkf"></span>
		"	""	""	""	""	"https://www.justdial.com/Bilaspur-Chhattisgarh/Lavely-Beauty-Clinic-Spa-Rajendra-Nagar/9999P7752-7752-140520164726-F5H3_BZDET?xid=QmlsYXNwdXItQ2hoYXR0aXNnYXJoIEJlYXV0eSBTcGFz"
"  Salons"	"Grace Gents Parlour"	"Shree Ram Plaza, Near Jj Hospital Torwa, Shree Ram Plaza Near J.j.hospital Torwa, Bilaspur-Chhattisgarh - 495001"	"Chhattisgarh"	""	"495001"	"India"	"+(<span class="mobilesv icon-oqp"></span><span class="mobilesv icon-baa"></span>)-<span class="mobilesv icon-oqp"></span><span class="mobilesv icon-oqp"></span><span class="mobilesv icon-nmg"></span><span class="mobilesv icon-baa"></span><span class="mobilesv icon-vuk"></span><span class="mobilesv icon-jie"></span><span class="mobilesv icon-vuk"></span><span class="mobilesv icon-oqp"></span>00
		"	""	""	""	""	"https://www.justdial.com/Bilaspur-Chhattisgarh/Grace-Gents-Parlour-Shree-Ram-Plaza-Near-Jjhospital-Torwa/9999P7752-7752-210715191652-V6W3_BZDET?xid=QmlsYXNwdXItQ2hoYXR0aXNnYXJoIEJlYXV0eSBTcGFz"
"  Beauty Parlours"	"Shri Sai Hairdresser"	"bilaspur-chhattisgarh - 495001, Bharat Chowk"	"chhattisgarh"	""	"495001"	"India"	"+(<span class="mobilesv icon-oqp"></span><span class="mobilesv icon-baa"></span>)-<span class="mobilesv icon-vuk"></span><span class="mobilesv icon-oqp"></span><span class="mobilesv icon-vuk"></span><span class="mobilesv icon-nlm"></span><span class="mobilesv icon-nmg"></span><span class="mobilesv icon-lkf"></span><span class="mobilesv icon-wyx"></span><span class="mobilesv icon-jie"></span><span class="mobilesv icon-vuk"></span><span class="mobilesv icon-wyx"></span>
		"	""	""	""	""	"https://www.justdial.com/Bilaspur-Chhattisgarh/Shri-Sai-Hairdresser-Bharat-Chowk/9999P7752-7752-190826181135-R1E3_BZDET?xid=QmlsYXNwdXItQ2hoYXR0aXNnYXJoIEJlYXV0eSBTcGFz"
"  Beauty Parlours"	"Vandna Buety Saloon And Spa"	"Near Lifeworth Hospital, Main Road, Samta Colony, Raipur, Chattisgarh,, Raipur Not In Bilaspur, Bilaspur H O, Bilaspur-Chhattisgarh - 495001"	"Chhattisgarh"	""	"495001"	"India"	"+(<span class="mobilesv icon-oqp"></span><span class="mobilesv icon-baa"></span>)-<span class="mobilesv icon-vuk"></span><span class="mobilesv icon-vuk"></span><span class="mobilesv icon-baa"></span><span class="mobilesv icon-nlm"></span><span class="mobilesv icon-wyx"></span><span class="mobilesv icon-jie"></span><span class="mobilesv icon-jie"></span>00<span class="mobilesv icon-wyx"></span>
		"	""	""	""	""	"https://www.justdial.com/Bilaspur-Chhattisgarh/Vandna-Buety-Saloon-And-Spa-Bilaspur-H-O/9999P7752-7752-140508180545-B4D3_BZDET?xid=QmlsYXNwdXItQ2hoYXR0aXNnYXJoIEJlYXV0eSBTcGFz"
"  Beauty Spas"	"Fashion World -the Unisex S.."	"Sudha Complex, Mungeli Naka, Bilaspur-Chhattisgarh - 495001, Near Shefer School"	"Chhattisgarh"	""	"495001"	"India"	"+(<span class="mobilesv icon-oqp"></span><span class="mobilesv icon-yzm"></span>)-<span class="mobilesv icon-oqp"></span><span class="mobilesv icon-vuk"></span><span class="mobilesv icon-wxl"></span><span class="mobilesv icon-oqp"></span><span class="mobilesv icon-lkf"></span><span class="mobilesv icon-oqp"></span><span class="mobilesv icon-fde"></span><span class="mobilesv icon-yzm"></span><span class="mobilesv icon-oqp"></span><span class="mobilesv icon-lkf"></span>
		"	""	""	""	""	"https://www.justdial.com/Bilaspur-Chhattisgarh/Fashion-World-the-Unisex-Salon-Near-Shefer-School-Mungeli-Naka/9999P7752-7752-180226231144-R9G6_BZDET?xid=QmlsYXNwdXItQ2hoYXR0aXNnYXJoIEJlYXV0eSBTcGFz"
"  Salons"	"Narayan Mens"	"Apollo Road, Bilaspur-Chhattisgarh - 495001, Near Prabhat Chowk"	"Chhattisgarh"	""	"495001"	"India"	"+(<span class="mobilesv icon-oqp"></span><span class="mobilesv icon-yzm"></span>)-<span class="mobilesv icon-jie"></span><span class="mobilesv icon-tsj"></span><span class="mobilesv icon-tsj"></span><span class="mobilesv icon-trs"></span><span class="mobilesv icon-oqp"></span><span class="mobilesv icon-oqp"></span><span class="mobilesv icon-fde"></span><span class="mobilesv icon-trs"></span><span class="mobilesv icon-wxl"></span><span class="mobilesv icon-oqp"></span>
		"	""	""	""	""	"https://www.justdial.com/Bilaspur-Chhattisgarh/Narayan-Mens-Near-Prabhat-Chowk/9999P7752-7752-190607113641-D2V6_BZDET?xid=QmlsYXNwdXItQ2hoYXR0aXNnYXJoIEJlYXV0eSBTcGFz"
"  Beauty Parlours"	"Herbal Beauty parlour"	"Mopka Road, Mopka, Bilaspur-Chhattisgarh - 495006, Ravi Resort"	"Chhattisgarh"	""	"495006"	"India"	"+(<span class="mobilesv icon-oqp"></span><span class="mobilesv icon-yzm"></span>)-<span class="mobilesv icon-fde"></span><span class="mobilesv icon-oqp"></span><span class="mobilesv icon-fde"></span><span class="mobilesv icon-tsj"></span><span class="mobilesv icon-lkf"></span><span class="mobilesv icon-vuk"></span><span class="mobilesv icon-vuk"></span><span class="mobilesv icon-trs"></span><span class="mobilesv icon-trs"></span><span class="mobilesv icon-tsj"></span>
		"	""	""	""	""	"https://www.justdial.com/Bilaspur-Chhattisgarh/Herbal-Beauty-parlour-Ravi-Resort-Mopka/9999P7752-7752-210722153711-V5C1_BZDET?xid=QmlsYXNwdXItQ2hoYXR0aXNnYXJoIEJlYXV0eSBTcGFz"
"  Beauty Spas"	"Ferfectcut Beauty Parlour"	"Sakri, bilaspur-chhattisgarh - 495001, Near Sakri"	"chhattisgarh"	""	"495001"	"India"	"+(<span class="mobilesv icon-oqp"></span><span class="mobilesv icon-yzm"></span>)-<span class="mobilesv icon-oqp"></span><span class="mobilesv icon-yzm"></span><span class="mobilesv icon-jie"></span><span class="mobilesv icon-oqp"></span><span class="mobilesv icon-fde"></span><span class="mobilesv icon-oqp"></span><span class="mobilesv icon-oqp"></span><span class="mobilesv icon-oqp"></span><span class="mobilesv icon-jie"></span><span class="mobilesv icon-vuk"></span>
		"	""	""	""	""	"https://www.justdial.com/Bilaspur-Chhattisgarh/Ferfectcut-Beauty-Parlour-Near-Sakri-Sakri/9999P7752-7752-200313153022-T6W9_BZDET?xid=QmlsYXNwdXItQ2hoYXR0aXNnYXJoIEJlYXV0eSBTcGFz"
"  Beauty Parlours"	"New Fashion Big Boss"	"Purana Power House, Purana Power House, Bilaspur-Chhattisgarh - 495001, Near Power House"	"Chhattisgarh"	""	"495001"	"India"	"+(<span class="mobilesv icon-oqp"></span><span class="mobilesv icon-yzm"></span>)-<span class="mobilesv icon-jie"></span><span class="mobilesv icon-vuk"></span><span class="mobilesv icon-nlm"></span><span class="mobilesv icon-jie"></span><span class="mobilesv icon-jie"></span><span class="mobilesv icon-trs"></span><span class="mobilesv icon-trs"></span><span class="mobilesv icon-tsj"></span><span class="mobilesv icon-trs"></span><span class="mobilesv icon-vuk"></span>
		"	""	""	""	""	"https://www.justdial.com/Bilaspur-Chhattisgarh/New-Fashion-Big-Boss-Near-Power-House-Purana-Power-House/9999P7752-7752-190722171554-T4A8_BZDET?xid=QmlsYXNwdXItQ2hoYXR0aXNnYXJoIEJlYXV0eSBTcGFz"
"  Beauty Spas  "	"Lavely Beauty Clinic & Spa"	"Near Hari Bhumi Press, Rajendra Nagar Chowk, Rajendra Nagar, Bilaspur-Chhattisgarh - 495001"	"Chhattisgarh"	""	"495001"	"India"	"+(<span class="mobilesv icon-oqp"></span><span class="mobilesv icon-yzm"></span>)-<span class="mobilesv icon-oqp"></span><span class="mobilesv icon-wxl"></span><span class="mobilesv icon-vuk"></span><span class="mobilesv icon-vuk"></span><span class="mobilesv icon-lkf"></span><span class="mobilesv icon-nlm"></span><span class="mobilesv icon-oqp"></span><span class="mobilesv icon-wxl"></span><span class="mobilesv icon-trs"></span><span class="mobilesv icon-trs"></span>
		"	""	""	""	""	"https://www.justdial.com/Bilaspur-Chhattisgarh/Lavely-Beauty-Clinic-Spa-Rajendra-Nagar/9999P7752-7752-140520164726-F5H3_BZDET?xid=QmlsYXNwdXItQ2hoYXR0aXNnYXJoIEJlYXV0eSBTcGFz"
"  Salons"	"Grace Gents Parlour"	"Shree Ram Plaza, Near Jj Hospital Torwa, Shree Ram Plaza Near J.j.hospital Torwa, Bilaspur-Chhattisgarh - 495001"	"Chhattisgarh"	""	"495001"	"India"	"+(<span class="mobilesv icon-oqp"></span><span class="mobilesv icon-yzm"></span>)-<span class="mobilesv icon-oqp"></span><span class="mobilesv icon-oqp"></span><span class="mobilesv icon-fde"></span><span class="mobilesv icon-yzm"></span><span class="mobilesv icon-jie"></span><span class="mobilesv icon-wxl"></span><span class="mobilesv icon-jie"></span><span class="mobilesv icon-oqp"></span><span class="mobilesv icon-nlm"></span><span class="mobilesv icon-nlm"></span>
		"	""	""	""	""	"https://www.justdial.com/Bilaspur-Chhattisgarh/Grace-Gents-Parlour-Shree-Ram-Plaza-Near-Jjhospital-Torwa/9999P7752-7752-210715191652-V6W3_BZDET?xid=QmlsYXNwdXItQ2hoYXR0aXNnYXJoIEJlYXV0eSBTcGFz"
"  Beauty Parlours"	"Shri Sai Hairdresser"	"bilaspur-chhattisgarh - 495001, Bharat Chowk"	"chhattisgarh"	""	"495001"	"India"	"+(<span class="mobilesv icon-oqp"></span><span class="mobilesv icon-yzm"></span>)-<span class="mobilesv icon-jie"></span><span class="mobilesv icon-oqp"></span><span class="mobilesv icon-jie"></span><span class="mobilesv icon-lkf"></span><span class="mobilesv icon-fde"></span><span class="mobilesv icon-trs"></span><span class="mobilesv icon-vuk"></span><span class="mobilesv icon-wxl"></span><span class="mobilesv icon-jie"></span><span class="mobilesv icon-vuk"></span>
		"	""	""	""	""	"https://www.justdial.com/Bilaspur-Chhattisgarh/Shri-Sai-Hairdresser-Bharat-Chowk/9999P7752-7752-190826181135-R1E3_BZDET?xid=QmlsYXNwdXItQ2hoYXR0aXNnYXJoIEJlYXV0eSBTcGFz"
"  Beauty Parlours"	"Vandna Buety Saloon And Spa"	"Near Lifeworth Hospital, Main Road, Samta Colony, Raipur, Chattisgarh,, Raipur Not In Bilaspur, Bilaspur H O, Bilaspur-Chhattisgarh - 495001"	"Chhattisgarh"	""	"495001"	"India"	"+(<span class="mobilesv icon-oqp"></span><span class="mobilesv icon-yzm"></span>)-<span class="mobilesv icon-jie"></span><span class="mobilesv icon-jie"></span><span class="mobilesv icon-yzm"></span><span class="mobilesv icon-lkf"></span><span class="mobilesv icon-vuk"></span><span class="mobilesv icon-wxl"></span><span class="mobilesv icon-wxl"></span><span class="mobilesv icon-nlm"></span><span class="mobilesv icon-nlm"></span><span class="mobilesv icon-vuk"></span>
		"	""	""	""	""	"https://www.justdial.com/Bilaspur-Chhattisgarh/Vandna-Buety-Saloon-And-Spa-Bilaspur-H-O/9999P7752-7752-140508180545-B4D3_BZDET?xid=QmlsYXNwdXItQ2hoYXR0aXNnYXJoIEJlYXV0eSBTcGFz"
